"id";"title";"description";"street";"city";"state";"postal_code";"country";"lat";"lng";"phone";"fax";"email";"website";"description_2";"logo_id";"marker_id";"is_disabled";"open_hours";"created_on";"updated_on";"ordr";"featured";"brand";"product";"pending";"slug";"custom"
"1";"ARQ Enterprises Inc. Tile & Stone Resources";"not available";"12740 Danielson Ct. Ste. D";"Poway";"CA";"92064";"223";"32.9414599";"-117.0468914";"1-858-486-1212";;;"https://www.hydroblok.com/find-a-dealer/arq-enterprises-inc-tile-stone-resources/";;"0";"1";"0";"{""mon"":""0"",""tue"":""0"",""wed"":""0"",""thu"":""0"",""fri"":""0"",""sat"":""0"",""sun"":""0""}";"2020-11-04 17:02:34";"2022-02-19 22:21:13";"0";NULL;NULL;NULL;NULL;"arq-enterprises-inc-tile-stone-resources-poway";NULL
"6";"Daltile Bend";"not available";"545 SE Bridgeford Blvd.";"Bend";"OR";"97702";"223";"44.0453764";"-121.2904147";"541-317-9301";;;"https://www.hydroblok.com/find-a-dealer/daltile-bend/";;"0";"1";"0";"{""mon"":""0"",""tue"":""0"",""wed"":""0"",""thu"":""0"",""fri"":""0"",""sat"":""0"",""sun"":""0""}";"2020-11-04 17:02:34";"2022-02-19 04:52:46";"0";NULL;NULL;NULL;NULL;"daltile-bend-bend";NULL
"7";"Daltile Eugene";"not available";"1471 Railroad Blvd. Unit # 1";"Eugene";"OR";"97402";"223";"44.0627299";"-123.1159002";"541-686-0217";;;"https://www.hydroblok.com/find-a-dealer/daltile-eugene/";;"0";"1";"0";"{""mon"":""0"",""tue"":""0"",""wed"":""0"",""thu"":""0"",""fri"":""0"",""sat"":""0"",""sun"":""0""}";"2020-11-04 17:02:34";"2022-02-19 04:52:13";"0";NULL;NULL;NULL;NULL;"daltile-eugene-eugene";NULL
"8";"Daltile Everett";"not available";"2525 West Casino Rd. Ste 8A";"Everett";"WA";"98204";"223";"47.9201044";"-122.2688532";"425-355-1645";;;"https://www.hydroblok.com/find-a-dealer/daltile-everett/";;"0";"1";"0";"{""mon"":""0"",""tue"":""0"",""wed"":""0"",""thu"":""0"",""fri"":""0"",""sat"":""0"",""sun"":""0""}";"2020-11-04 17:02:34";"2022-02-19 04:42:41";"0";NULL;NULL;NULL;NULL;"daltile-everett-everett";NULL
"9";"Daltile Lakewood";"not available";"4215 95th Street SW - Suite A";"Lakewood";"WA";"98499";"223";"47.1710255";"-122.4931694";"253-581-1130";;;"https://www.hydroblok.com/find-a-dealer/daltile-lakewood/";;"0";"1";"0";"{""mon"":""0"",""tue"":""0"",""wed"":""0"",""thu"":""0"",""fri"":""0"",""sat"":""0"",""sun"":""0""}";"2020-11-04 17:02:34";"2022-02-19 04:49:43";"0";NULL;NULL;NULL;NULL;"daltile-lakewood-lakewood";NULL
"10";"Daltile Las Vegas";"not available";"3455 W. Sunset Rd. Ste. G";"Las Vegas";"NV";"89118";"223";"36.07138";"-115.1862674";"702-361-6873";;;"https://www.hydroblok.com/find-a-dealer/daltile-las-vegas/";;"0";"1";"0";"{""mon"":""0"",""tue"":""0"",""wed"":""0"",""thu"":""0"",""fri"":""0"",""sat"":""0"",""sun"":""0""}";"2020-11-04 17:02:34";"2022-02-19 22:31:06";"0";NULL;NULL;NULL;NULL;"daltile-las-vegas-las-vegas";NULL
"11";"Daltile Ontario";"not available";"3624 E. La Salle";"Ontario";"CA";"91761";"223";"34.0513947";"-117.5710199";;;;"https://www.hydroblok.com/find-a-dealer/daltile-ontario/";;"0";"1";"0";"{""mon"":""0"",""tue"":""0"",""wed"":""0"",""thu"":""0"",""fri"":""0"",""sat"":""0"",""sun"":""0""}";"2020-11-04 17:02:34";"2022-02-19 22:06:38";"0";NULL;NULL;NULL;NULL;"daltile-ontario-ontario";NULL
"12";"Daltile Palm Desert";"not available";"77-583 El Duna Ct, Ste A";"Palm Desert";"CA";"92211";"223";"33.767608";"-116.3095427";"760-772-1298";;;"https://www.hydroblok.com/find-a-dealer/daltile-palm-desert/";;"0";"1";"0";"{""mon"":""0"",""tue"":""0"",""wed"":""0"",""thu"":""0"",""fri"":""0"",""sat"":""0"",""sun"":""0""}";"2020-11-04 17:02:34";"2022-02-19 22:20:32";"0";NULL;NULL;NULL;NULL;"daltile-palm-desert-palm-desert";NULL
"13";"Daltile Portland";"not available";"3240 N.W. 29th Ave.";"Portland";"OR";"97210";"223";"45.5457093";"-122.7103039";"503-236-4585";;;"https://www.hydroblok.com/find-a-dealer/daltile-portland/";;"0";"1";"0";"{""mon"":""0"",""tue"":""0"",""wed"":""0"",""thu"":""0"",""fri"":""0"",""sat"":""0"",""sun"":""0""}";"2020-11-04 17:02:34";"2022-02-19 04:51:43";"0";NULL;NULL;NULL;NULL;"daltile-portland-portland";NULL
"14";"Daltile Redlands";"not available";"2354 W. Lugonia Ave.";"Redlands";"CA";"92374";"223";"34.070681";"-117.238097";"909-796-3466";;;"https://www.hydroblok.com/find-a-dealer/daltile-redlands/";;"0";"1";"0";"{""mon"":""0"",""tue"":""0"",""wed"":""0"",""thu"":""0"",""fri"":""0"",""sat"":""0"",""sun"":""0""}";"2020-11-04 17:02:34";"2022-02-19 22:20:10";"0";NULL;NULL;NULL;NULL;"daltile-redlands-redlands";NULL
"15";"Daltile San Leandro";"not available";"2311 Merced Street";"San Leandro";"CA";"94577";"223";"37.7070005";"-122.1704363";"510-895-9006";;;"https://www.hydroblok.com/find-a-dealer/daltile-san-leandro/";;"0";"0";"0";"{""mon"":""0"",""tue"":""0"",""wed"":""0"",""thu"":""0"",""fri"":""0"",""sat"":""0"",""sun"":""0""}";"2020-11-04 17:02:34";"2022-02-19 05:02:15";"0";NULL;NULL;NULL;NULL;"daltile-san-leandro-san-leandro";NULL
"16";"Daltile Seattle";"not available";"540 S. Front St.";"Seattle";"WA";"98108";"223";"47.5484649";"-122.3270445";"206-762-6620";;;"https://www.hydroblok.com/find-a-dealer/daltile-seattle/";;"0";"1";"0";"{""mon"":""0"",""tue"":""0"",""wed"":""0"",""thu"":""0"",""fri"":""0"",""sat"":""0"",""sun"":""0""}";"2020-11-04 17:02:34";"2022-02-19 04:47:29";"0";NULL;NULL;NULL;NULL;"daltile-seattle-seattle";NULL
"17";"Daltile Spokane";"not available";"East 4000 Broadway";"Spokane";"WA";"99202";"223";"47.6639002";"-117.3511104";"509-534-0202";;;"https://www.hydroblok.com/find-a-dealer/daltile-spokane/";;"0";"1";"0";"{""mon"":""0"",""tue"":""0"",""wed"":""0"",""thu"":""0"",""fri"":""0"",""sat"":""0"",""sun"":""0""}";"2020-11-04 17:02:34";"2022-02-21 03:30:45";"0";NULL;NULL;NULL;NULL;"daltile-spokane-spokane";NULL
"18";"Daltile Torrance";"not available";"18740 Crenshaw Blvd.";"Torrance";"CA";"90504";"223";"33.8603227";"-118.3265823";"310-323-4632";;;"https://www.hydroblok.com/find-a-dealer/daltile-torrance/";;"0";"1";"0";"{""mon"":""0"",""tue"":""0"",""wed"":""0"",""thu"":""0"",""fri"":""0"",""sat"":""0"",""sun"":""0""}";"2020-11-04 17:02:34";"2022-02-19 05:03:41";"0";NULL;NULL;NULL;NULL;"daltile-torrance-torrance";NULL
"19";"Daltile Van Nuys";"not available";"16201 Stagg St.";"Van Nuys";"CA";"91406";"223";"34.2135115";"-118.4865522";"818-787-3224";;;"https://www.hydroblok.com/find-a-dealer/daltile-van-nuys/";;"0";"1";"0";"{""mon"":""0"",""tue"":""0"",""wed"":""0"",""thu"":""0"",""fri"":""0"",""sat"":""0"",""sun"":""0""}";"2020-11-04 17:02:34";"2022-02-19 05:03:15";"0";NULL;NULL;NULL;NULL;"daltile-van-nuys-van-nuys";NULL
"23";"HPM Building Supply, Hilo HI";"not available";"380 Kanoelehua Avenue";"Hilo";"HI";"96720";"223";"19.7173297";"-155.0650201";"(808) 935-0875";;;"https://www.hydroblok.com/find-a-dealer/hpm-building-supply-hilo-home-design-center/";;"0";"1";"0";"{""mon"":""0"",""tue"":""0"",""wed"":""0"",""thu"":""0"",""fri"":""0"",""sat"":""0"",""sun"":""0""}";"2020-11-04 17:02:34";"2022-02-21 20:07:15";"0";NULL;NULL;NULL;NULL;"hpm-building-supply-hilo-hi-hilo";NULL
"24";"HPM Building Supply, Kailua-Kona HI";"not available";"74-5511 Luhia Street";"Kailua-Kona";"HI";"96740";"223";"19.6501971";"-156.0028914";"(808) 334-4200";;;"https://www.hydroblok.com/find-a-dealer/hpm-building-supply-kona-retail-store-lumberyard/";;"0";"1";"0";"{""mon"":""0"",""tue"":""0"",""wed"":""0"",""thu"":""0"",""fri"":""0"",""sat"":""0"",""sun"":""0""}";"2020-11-04 17:02:34";"2022-02-21 03:38:10";"0";NULL;NULL;NULL;NULL;"hpm-building-supply-kailua-kona-hi-kailua-kona";NULL
"25";"HPM Building Supply, Waimea HI";"not available";"64-1027 Mamalahoa Highway";"Kamuela";"HI";"96743";"223";"20.0246285";"-155.6582429";"(808) 885-6036";;;"https://www.hydroblok.com/find-a-dealer/hpm-building-supply-waimea-retail-store-lumberyard/";;"0";"1";"0";"{""mon"":""0"",""tue"":""0"",""wed"":""0"",""thu"":""0"",""fri"":""0"",""sat"":""0"",""sun"":""0""}";"2020-11-04 17:02:34";"2022-02-21 20:10:45";"0";NULL;NULL;NULL;NULL;"hpm-building-supply-waimea-hi-kamuela";NULL
"27";"Lake Interiors";"not available";"66 Hwy. 150";"Chelan";"WA";"98816";"223";"47.8339052";"-119.9919665";"(509) 682-2301";NULL;NULL;"https://lakeinteriorschelan.com";NULL;"0";"1";NULL;"{""mon"":""0"",""tue"":""0"",""wed"":""0"",""thu"":""0"",""fri"":""0"",""sat"":""0"",""sun"":""0""}";"2020-11-04 17:02:34";NULL;NULL;NULL;NULL;NULL;NULL;NULL;NULL
"28";"Lynden Interiors";"not available";"2017 Front St";"Lynden";"WA";"98264";"223";"48.9386841";"-122.4864651";"360-354-4149";;;"https://www.hydroblok.com/find-a-dealer/lynden-interiors/";;"0";"0";"0";"{""mon"":""0"",""tue"":""0"",""wed"":""0"",""thu"":""0"",""fri"":""0"",""sat"":""0"",""sun"":""0""}";"2020-11-04 17:02:34";"2022-02-19 04:38:49";"0";NULL;NULL;NULL;NULL;"lynden-interiors-lynden";NULL
"29";"Marazzi Tile & Stone";"not available";"9020 Activity Road Ste B";"San Diego";"CA";"92126";"223";"32.8964471";"-117.1326091";"858.547.8453";;;"https://www.hydroblok.com/find-a-dealer/marazzi-tile-stone/";;"0";"0";"0";"{""mon"":""0"",""tue"":""0"",""wed"":""0"",""thu"":""0"",""fri"":""0"",""sat"":""0"",""sun"":""0""}";"2020-11-04 17:02:34";"2022-02-19 22:22:44";"0";NULL;NULL;NULL;NULL;"marazzi-tile-stone-san-diego";NULL
"30";"Sams Flooring Supplies Abbotsford";"not available";"#103 30755 Simpson Rd.";"Abbostford";"BC";"V2T 6X4";"38";"49.046398";"-122.3706777";"604-850-6477";;;"https://www.hydroblok.com/find-a-dealer/sams-flooring-supplies-abbotsford/";;"0";"1";"0";"{""mon"":""0"",""tue"":""0"",""wed"":""0"",""thu"":""0"",""fri"":""0"",""sat"":""0"",""sun"":""0""}";"2020-11-04 17:02:34";"2022-02-19 04:34:56";"0";NULL;NULL;NULL;NULL;"sams-flooring-supplies-abbotsford-abbostford";NULL
"31";"Sams Flooring Supplies Chilliwack";"not available";"#B 8850 Young Rd.";"Chilliwack";"BC";"V2P 4P5";"38";"49.162958";"-121.952092";"604-795-6521";;;"https://www.hydroblok.com/find-a-dealer/sams-flooring-supplies-chilliwack/";;"0";"1";"0";"{""mon"":""0"",""tue"":""0"",""wed"":""0"",""thu"":""0"",""fri"":""0"",""sat"":""0"",""sun"":""0""}";"2020-11-04 17:02:34";"2022-01-18 18:57:35";"0";NULL;NULL;NULL;NULL;"sams-flooring-supplies-chilliwack-chilliwack";NULL
"32";"Sams Flooring Supplies Kelowna";"not available";"#100 1516 Keehn Rd.";"Kelowna";"BC";"V1X 5T3";"38";"49.8911203";"-119.4155411";"250-860-8886";;;"https://www.hydroblok.com/find-a-dealer/sams-flooring-supplies-kelowna/";;"0";"1";"0";"{""mon"":""0"",""tue"":""0"",""wed"":""0"",""thu"":""0"",""fri"":""0"",""sat"":""0"",""sun"":""0""}";"2020-11-04 17:02:34";"2022-02-19 04:35:34";"0";NULL;NULL;NULL;NULL;"sams-flooring-supplies-kelowna-kelowna";NULL
"33";"Sams Flooring Supplies Langley";"not available";"#8 20701 Langley Bypass";"Langley";"BC";"V3A 5E8";"38";"49.1132391";"-122.6490234";"604-530-2949";;;"https://www.hydroblok.com/find-a-dealer/sams-flooring-supplies-langley/";;"0";"1";"0";"{""mon"":""0"",""tue"":""0"",""wed"":""0"",""thu"":""0"",""fri"":""0"",""sat"":""0"",""sun"":""0""}";"2020-11-04 17:02:34";"2022-02-19 04:33:50";"0";NULL;NULL;NULL;NULL;"sams-flooring-supplies-langley-langley";NULL
"34";"Sams Flooring Supplies Surrey";"not available";"#227 12448 82nd Ave. ";"Surrey";"BC";"V3W 2E9";"38";"49.1510416";"-122.8778542";"604-594-9888";;;"https://www.hydroblok.com/find-a-dealer/sams-flooring-supplies-surrey/";;"0";"1";"0";"{""mon"":""0"",""tue"":""0"",""wed"":""0"",""thu"":""0"",""fri"":""0"",""sat"":""0"",""sun"":""0""}";"2020-11-04 17:02:34";"2022-01-18 18:59:12";"0";NULL;NULL;NULL;NULL;"sams-flooring-supplies-surrey-surrey";NULL
"35";"Sams Flooring Supplies Vernon";"not available";"#2 4601 23rd St.";"Vernon";"BC";"V1T 4K7";"38";"50.2788269";"-119.2609731";"250-260-7075";;;"https://www.hydroblok.com/find-a-dealer/sams-flooring-supplies-vernon/";;"0";"0";"0";"{""mon"":""0"",""tue"":""0"",""wed"":""0"",""thu"":""0"",""fri"":""0"",""sat"":""0"",""sun"":""0""}";"2020-11-04 17:02:34";"2022-02-19 04:36:20";"0";NULL;NULL;NULL;NULL;"sams-flooring-supplies-vernon-vernon";NULL
"36";"Seattle Glass Block";"not available";"6029 238th Street SE";"Woodinville";"WA";"98072";"223";"47.7828373";"-122.1528561";"425-483-9977";;;"https://www.hydroblok.com/find-a-dealer/seattle-glass-block/";;"0";"1";"0";"{""mon"":""0"",""tue"":""0"",""wed"":""0"",""thu"":""0"",""fri"":""0"",""sat"":""0"",""sun"":""0""}";"2020-11-04 17:02:34";"2022-02-19 04:45:15";"0";NULL;NULL;NULL;NULL;"seattle-glass-block-woodinville";NULL
"37";"Sierra Glass Block";"not available";"8230 Belvedere Ave., Ste. E";"Sacramento";"CA";"95826";"223";"38.5375525";"-121.4026111";"916-455-5507";;;"https://www.hydroblok.com/find-a-dealer/sierra-glass-block/";;"0";"0";"0";"{""mon"":""0"",""tue"":""0"",""wed"":""0"",""thu"":""0"",""fri"":""0"",""sat"":""0"",""sun"":""0""}";"2020-11-04 17:02:34";"2022-02-19 04:57:26";"0";NULL;NULL;NULL;NULL;"sierra-glass-block-sacramento";NULL
"39";"Tile for Less Bothell";"not available";"19400 Bothell Everett Hwy";"Bothell";"WA";"98012";"223";"47.82146400000001";"-122.2079403";"425-415-6600";;;"https://www.hydroblok.com/find-a-dealer/tile-for-less-bothell/";;"0";"1";"1";"{""mon"":""0"",""tue"":""0"",""wed"":""0"",""thu"":""0"",""fri"":""0"",""sat"":""0"",""sun"":""0""}";"2020-11-04 17:02:34";"2023-11-17 16:22:55";"0";NULL;NULL;NULL;NULL;"tile-for-less-bothell-bothell";NULL
"40";"Tile for Less Seattle";"not available";"2440 First Ave. S";"Seattle";"WA";"98134";"223";"47.5806688";"-122.3338905";"(206) 489-4504";;"seattle@tileforlessnw.com";"https://tileforlessnw.com/";;"0";"1";"0";"{""mon"":""0"",""tue"":""0"",""wed"":""0"",""thu"":""0"",""fri"":""0"",""sat"":""0"",""sun"":""0""}";"2020-11-04 17:02:34";"2023-11-17 16:27:13";"0";NULL;NULL;NULL;NULL;"tile-for-less-seattle-seattle";NULL
"41";"Tile for Less Spokane Valley";"not available";"5414 E. Sprague";"Spokane Valley";"WA";"99212";"223";"47.6565486";"-117.3316352";"509.315.5176";;;"https://www.hydroblok.com/find-a-dealer/tile-for-less-spokane-valley/";;"0";"1";"0";"{""mon"":""0"",""tue"":""0"",""wed"":""0"",""thu"":""0"",""fri"":""0"",""sat"":""0"",""sun"":""0""}";"2020-11-04 17:02:34";"2022-02-21 03:33:22";"0";NULL;NULL;NULL;NULL;"tile-for-less-spokane-valley-spokane-valley";NULL
"42";"Tile Lines";"not available";"1531 Central Ave S";"Kent";"WA";"98108";"223";"47.3656915";"-122.2303324";"253-872-0449";;;"https://www.hydroblok.com/find-a-dealer/tile-lines/";;"0";"1";"0";"{""mon"":""0"",""tue"":""0"",""wed"":""0"",""thu"":""0"",""fri"":""0"",""sat"":""0"",""sun"":""0""}";"2020-11-04 17:02:34";"2022-02-19 04:49:11";"0";NULL;NULL;NULL;NULL;"tile-lines-kent";NULL
"43";"United Tile Portland";"not available";"3145 NW Yean Ave.";"Portland";"OR";"97210";"223";"45.5435502";"-122.7021864";"503-231-4959";;;"https://www.hydroblok.com/find-a-dealer/united-tile-portland/";;"0";"1";"0";"{""mon"":""0"",""tue"":""0"",""wed"":""0"",""thu"":""0"",""fri"":""0"",""sat"":""0"",""sun"":""0""}";"2020-11-04 17:02:34";"2022-02-19 04:50:44";"0";NULL;NULL;NULL;NULL;"united-tile-portland-portland";NULL
"44";"United Tile Seattle";"not available";"750 S. Michigan Street";"Seattle";"WA";"98108";"223";"47.5473355";"-122.3242706";"425-251-5290";;;"https://www.hydroblok.com/find-a-dealer/united-tile-seattle/";;"0";"1";"0";"{""mon"":""0"",""tue"":""0"",""wed"":""0"",""thu"":""0"",""fri"":""0"",""sat"":""0"",""sun"":""0""}";"2020-11-04 17:02:34";"2022-02-19 04:48:03";"0";NULL;NULL;NULL;NULL;"united-tile-seattle-seattle";NULL
"45";"United Tile Spokane";"not available";"622 East Second";"Spokane";"WA";"99202";"223";"47.6543488";"-117.4010589";"509-466-4478";;;"https://www.hydroblok.com/find-a-dealer/united-tile-spokane/";;"0";"1";"0";"{""mon"":""0"",""tue"":""0"",""wed"":""0"",""thu"":""0"",""fri"":""0"",""sat"":""0"",""sun"":""0""}";"2020-11-04 17:02:34";"2022-02-21 03:30:06";"0";NULL;NULL;NULL;NULL;"united-tile-spokane-spokane";NULL
"46";"BASSANO BUILDING CENTER (TIMBER MART)";"not available";"417 - 11th Street Box 368";"Bassano";"AB";"T0J 0B0";"38";"50.7894791";"-112.4686447";"403-641-4000";;"bassbuilding@eidnet.org";"https://www.timbermart.ca/en/stores/bassano-building-center-ltd";;"0";"0";"1";"{""mon"":""0"",""tue"":""0"",""wed"":""0"",""thu"":""0"",""fri"":""0"",""sat"":""0"",""sun"":""0""}";"2020-11-04 17:02:34";"2022-01-07 04:24:40";"0";NULL;NULL;NULL;NULL;"bassano-building-center-timber-mart-bassano";NULL
"60";"Heart Mountain Home";"not available";"1659 E Main St";"Freeland";"WA";"98249";"223";"48.0098553";"-122.525418";"360-221-1124";;;"https://www.hydroblok.com/find-a-dealer/heart-mountain-home/";;"0";"0";"0";"{""mon"":""0"",""tue"":""0"",""wed"":""0"",""thu"":""0"",""fri"":""0"",""sat"":""0"",""sun"":""0""}";"2020-11-04 17:02:34";"2023-05-26 01:52:55";"0";NULL;NULL;NULL;NULL;"heart-mountain-home-freeland";NULL
"61";"Daltile Anaheim ";"not available";"1600 S. Page St.";"Anaheim";"CA";"92806";"223";"33.8080491";"-117.8863593";"714.634.2546";;;"https://www.hydroblok.com/find-a-dealer/daltile-anaheim/";;"0";"0";"0";"{""mon"":""0"",""tue"":""0"",""wed"":""0"",""thu"":""0"",""fri"":""0"",""sat"":""0"",""sun"":""0""}";"2020-11-04 17:02:34";"2022-02-19 05:06:05";"0";NULL;NULL;NULL;NULL;"daltile-anaheim-anaheim";NULL
"62";"Daltile Sacramento";;"9971 Horn Road";"Sacramento";"CA";"95827";"223";"38.57789560000001";"-121.3224925";"(916) 364-0741";;;"https://www.hydroblok.com/find-a-dealer/daltile-sacramento/";;"0";"0";"0";"{""mon"":[""07:00 AM - 04:00 PM""],""tue"":[""07:00 AM - 04:00 PM""],""wed"":[""07:00 AM - 04:00 PM""],""thu"":[""07:00 AM - 04:00 PM""],""fri"":[""07:00 AM - 04:00 PM""],""sat"":[""09:00 AM - 02:00 PM""],""sun"":""0""}";"2020-11-04 17:02:34";"2022-02-19 04:55:49";"0";NULL;NULL;NULL;NULL;"daltile-sacramento-sacramento";NULL
"63";"American Olean / Marazzi Tile & Stone";"not available";"1955 Davis St";"San Leandro";"CA";"94577";"223";"37.7134819";"-122.1817556";"510-394-9800";;;"https://www.hydroblok.com/find-a-dealer/american-olean-marazzi-tile-stone-2/";;"0";"0";"0";"{""mon"":""0"",""tue"":""0"",""wed"":""0"",""thu"":""0"",""fri"":""0"",""sat"":""0"",""sun"":""0""}";"2020-11-04 17:02:34";"2022-02-19 05:01:34";"0";NULL;NULL;NULL;NULL;"american-olean-marazzi-tile-stone-san-leandro";NULL
"64";"American Olean / Marazzi Tile & Stone";"not available";"4935 Southfront Rd";"Livermore";"CA";"94551";"223";"37.7002343";"-121.7393158";"925-449-0338";;;"https://www.hydroblok.com/find-a-dealer/american-olean-marazzi-tile-stone/";;"0";"0";"0";"{""mon"":""0"",""tue"":""0"",""wed"":""0"",""thu"":""0"",""fri"":""0"",""sat"":""0"",""sun"":""0""}";"2020-11-04 17:02:34";"2022-02-19 05:01:04";"0";NULL;NULL;NULL;NULL;"american-olean-marazzi-tile-stone-livermore";NULL
"65";"Esta Aqui Tile";"not available";"2124 Grant Street";"Bellingham";"WA";"98226";"223";"48.7585071";"-122.4688015";"(360) 734-7374";;;"https://www.hydroblok.com/find-a-dealer/Esta-Aqui-tile/";;"0";"0";"0";"{""mon"":""0"",""tue"":""0"",""wed"":""0"",""thu"":""0"",""fri"":""0"",""sat"":""0"",""sun"":""0""}";"2020-11-04 17:02:34";"2022-02-19 04:39:40";"0";NULL;NULL;NULL;NULL;"esta-aqui-tile-bellingham";NULL
"66";"Daltile Boise";"not available";"11510 West Executive Drive";"Boise";"ID";"83713";"223";"43.6098803";"-116.3264848";"(208) 375-4466";;;"https://www.hydroblok.com/find-a-dealer/daltile-boise/";;"0";"0";"0";"{""mon"":""0"",""tue"":""0"",""wed"":""0"",""thu"":""0"",""fri"":""0"",""sat"":""0"",""sun"":""0""}";"2020-11-04 17:02:34";"2022-02-21 03:12:48";"0";NULL;NULL;NULL;NULL;"daltile-boise-boise";NULL
"67";"Emser Tile Boise";"not available";"12050 West Franklin Road";"Boise";"ID";"83709";"223";"43.6049343";"-116.3142382";"(208) 375-2020";;;"https://www.hydroblok.com/find-a-dealer/emser-tile-boise/";;"0";"0";"0";"{""mon"":""0"",""tue"":""0"",""wed"":""0"",""thu"":""0"",""fri"":""0"",""sat"":""0"",""sun"":""0""}";"2020-11-04 17:02:34";"2022-02-21 03:10:29";"0";NULL;NULL;NULL;NULL;"emser-tile-boise-boise";NULL
"68";"American Olean / Marazzi Phoenix";"not available";"2115 S 11th Ave Suite 170";"Phoenix";"AZ";"85007";"223";"33.4285151";"-112.0854559";"(602) 252-5357";;;"https://www.hydroblok.com/find-a-dealer/american-olean-marazzi-phoenix/";;"0";"0";"0";"{""mon"":""0"",""tue"":""0"",""wed"":""0"",""thu"":""0"",""fri"":""0"",""sat"":""0"",""sun"":""0""}";"2020-11-04 17:02:34";"2022-02-19 22:27:43";"0";NULL;NULL;NULL;NULL;"american-olean-marazzi-phoenix-phoenix";NULL
"69";"American Olean / Marazzi Denver";"not available";"12435 E 42nd Ave Unit 10";"Denver";"CO";"80239";"223";"39.7757418";"-104.8440938";"(303) 375-8253";;;"https://www.hydroblok.com/find-a-dealer/daltile-american-olean-marazzi-sales-service-center/";;"0";"0";"0";"{""mon"":""0"",""tue"":""0"",""wed"":""0"",""thu"":""0"",""fri"":""0"",""sat"":""0"",""sun"":""0""}";"2020-11-04 17:02:34";"2022-02-19 05:09:14";"0";NULL;NULL;NULL;NULL;"american-olean-marazzi-denver-denver";NULL
"70";"American Olean / Marazzi Salt Lake City";"not available";"2922 South 300 West";"Salt Lake City";"UT";"84115";"223";"40.7071115";"-111.9004992";"(801) 466-9736";;;"https://www.hydroblok.com/find-a-dealer/american-olean-marazzi-salt-lake-city/";;"0";"0";"0";"{""mon"":""0"",""tue"":""0"",""wed"":""0"",""thu"":""0"",""fri"":""0"",""sat"":""0"",""sun"":""0""}";"2020-11-04 17:02:34";"2022-02-19 22:33:59";"0";NULL;NULL;NULL;NULL;"american-olean-marazzi-salt-lake-city-salt-lake-city";NULL
"71";"American Olean / Marazzi Anaheim";"not available";"1340 S State College Blvd.";"Anaheim";"CA";"92806";"223";"33.8140353";"-117.8881904";"(714) 956-7565";;;"https://www.hydroblok.com/find-a-dealer/american-olean-marazzi-anaheim/";;"0";"0";"0";"{""mon"":""0"",""tue"":""0"",""wed"":""0"",""thu"":""0"",""fri"":""0"",""sat"":""0"",""sun"":""0""}";"2020-11-04 17:02:34";"2022-02-19 05:04:22";"0";NULL;NULL;NULL;NULL;"american-olean-marazzi-anaheim-anaheim";NULL
"72";"Dal Tile Fairfield CA";;"2350 S Watney Way, Suite A";"Fairfield";"CA";"94533";"223";"38.2340894";"-122.0729948";"(707) 429-4592";;;"https://www.hydroblok.com/find-a-dealer/daltile-fairfield-ca/";;"0";"0";"0";"{""mon"":""0"",""tue"":""0"",""wed"":""0"",""thu"":""0"",""fri"":""0"",""sat"":""0"",""sun"":""0""}";"2020-11-04 17:02:34";"2022-02-19 04:55:11";"0";NULL;NULL;NULL;NULL;"dal-tile-fairfield-ca-fairfield";NULL
"73";"SariSand Tile";;"685 Rio Road West";"Charlottesville";"VA";"22901";"223";"38.0841935";"-78.47706769999999";"434-964-4680";;;"https://www.hydroblok.com/find-a-dealer/sarisand-tile/";;"0";"0";"0";"{""mon"":[""09:00 AM - 04:00 PM""],""tue"":[""09:00 AM - 04:00 PM""],""wed"":[""09:00 AM - 04:00 PM""],""thu"":[""09:00 AM - 04:00 PM""],""fri"":[""09:00 AM - 04:00 PM""],""sat"":""0"",""sun"":""0""}";"2020-11-04 17:02:34";"2024-05-02 13:55:19";"0";NULL;NULL;NULL;NULL;"sarisand-tile-charlottesville";NULL
"75";"Daltile Honolulu";;"1200 N Nimitz Hwy";"Honolulu";"HI";"96817";"223";"21.3199084";"-157.8764463";"(808) 523-3660";;;"https://www.hydroblok.com/find-a-dealer/daltile-honolulu/";;"0";"0";"0";"{""mon"":[""07:00 AM - 05:00 PM""],""tue"":[""07:00 AM - 05:00 PM""],""wed"":[""07:00 AM - 05:00 PM""],""thu"":[""07:00 AM - 05:00 PM""],""fri"":[""07:00 AM - 05:00 PM""],""sat"":""0"",""sun"":""0""}";"2020-11-04 17:02:34";"2022-02-21 20:13:58";"0";NULL;NULL;NULL;NULL;"daltile-honolulu-honolulu";NULL
"76";"Daltile Chico";;"206 Meyers St.";"Chico";"CA";"95928";"223";"39.7142052";"-121.8185072";"(530) 343-6425";;;"https://www.hydroblok.com/find-a-dealer/daltile-chico/";;"0";"0";"0";"{""mon"":[""07:30 AM - 04:30 PM""],""tue"":[""07:30 AM - 04:30 PM""],""wed"":[""07:30 AM - 04:30 PM""],""thu"":[""07:30 AM - 04:30 PM""],""fri"":[""07:30 AM - 04:30 PM""],""sat"":""0"",""sun"":""0""}";"2020-11-04 17:02:34";"2022-02-19 04:54:00";"0";NULL;NULL;NULL;NULL;"daltile-chico-chico";NULL
"77";"Daltile Redding CA";;"3065 Crossroads Drive";"Redding";"CA";"96003";"223";"40.5612642";"-122.2971608";" (530) 221-8453";;;"https://www.hydroblok.com/find-a-dealer/daltile-redding-ca/";;"0";"0";"0";"{""mon"":[""07:30 AM - 04:30 PM""],""tue"":[""09:30 AM - 04:30 PM""],""wed"":[""07:30 AM - 04:30 PM""],""thu"":[""07:30 AM - 04:30 PM""],""fri"":[""07:30 AM - 04:30 PM""],""sat"":""0"",""sun"":""0""}";"2020-11-04 17:02:34";"2022-02-19 04:53:16";"0";NULL;NULL;NULL;NULL;"daltile-redding-ca-redding";NULL
"78";"Standard Paint and Flooring L.L.C.";;"149 Easy Way";"Wenatchee";;"98901";"223";"47.4681167";"-120.3326644";"509-663-8574";;;"https://www.hydroblok.com/find-a-dealer/standard-paint-and-flooring-l-l-c/";;"0";"0";"0";"{""mon"":[""07:00 AM - 05:30 PM""],""tue"":[""07:00 AM - 05:30 PM""],""wed"":[""07:00 AM - 05:30 PM""],""thu"":[""07:00 AM - 05:30 PM""],""fri"":[""07:00 AM - 05:30 PM""],""sat"":[""08:00 AM - 02:00 PM""],""sun"":""0""}";"2020-11-04 17:02:34";"2022-02-21 03:16:06";"0";NULL;NULL;NULL;NULL;"standard-paint-and-flooring-l-l-c-wenatchee";NULL
"79";"Emser Tile";;"5712 1400, S State College Blvd";"Anaheim";"CA";"92806";"223";"33.8127037";"-117.8883735";"(714) 778-5777";;;"https://www.hydroblok.com/find-a-dealer/emser-tile/";;"0";"0";"0";"{""mon"":[""06:30 AM - 04:00 PM""],""tue"":[""06:30 AM - 04:00 PM""],""wed"":[""06:30 AM - 04:00 PM""],""thu"":[""06:30 AM - 04:00 PM""],""fri"":[""06:30 AM - 04:00 PM""],""sat"":""0"",""sun"":""0""}";"2020-11-04 17:02:34";"2022-02-19 05:05:19";"0";NULL;NULL;NULL;NULL;"emser-tile-anaheim";NULL
"80";"Northwest Trends";;"11315 E Montgomery Dr";"Spokane Valley";"WA";"99206";"223";"47.6793565";"-117.2524168";"(509) 921-9677";;;"https://www.hydroblok.com/find-a-dealer/northwest-trends/";;"0";"0";"0";"{""mon"":[""08:00 AM - 05:30 PM""],""tue"":[""08:00 AM - 05:30 PM""],""wed"":[""08:00 AM - 05:30 PM""],""thu"":[""08:00 AM - 05:30 PM""],""fri"":[""08:00 AM - 05:30 PM""],""sat"":[""10:00 AM - 04:00 PM""],""sun"":""0""}";"2020-11-09 20:53:04";"2022-02-21 03:35:42";"0";NULL;NULL;NULL;NULL;"northwest-trends-spokane-valley";NULL
"81";"Floor Trader Outlet Spokane";;"6227 N Division S";"Spokane";"WA";"99208";"223";"47.7145836";"-117.4118987";"(509) 309-0673";;;"https://www.hydroblok.com/find-a-dealer/floor-trader-outlet-spokane/";;"0";"0";"1";"{""mon"":[""07:00 AM - 07:00 PM""],""tue"":[""07:00 AM - 07:00 PM""],""wed"":[""07:00 AM - 07:00 PM""],""thu"":[""07:00 AM - 07:00 PM""],""fri"":[""07:00 AM - 07:00 PM""],""sat"":[""07:00 AM - 07:00 PM""],""sun"":[""08:00 AM - 05:00 PM""]}";"2020-11-09 20:56:09";"2024-02-02 19:24:24";"0";NULL;NULL;NULL;NULL;"floor-trader-outlet-spokane-spokane";NULL
"83";"Mount Vernon Carpet One Floor and Home";;"400 West Fir Street";"Mount Vernon";"WA";"98273";"223";"48.427979";"-122.3383014";"360-336-6533";;;"https://www.hydroblok.com/find-a-dealer/Mount%20Vernon%20Carpet%20One%20Floor%20and%20Home/";;"0";"0";"0";"{""mon"":[""09:00 AM - 05:30 PM""],""tue"":[""09:00 AM - 05:30 PM""],""wed"":[""09:00 AM - 05:30 PM""],""thu"":[""09:00 AM - 05:30 PM""],""fri"":[""09:00 AM - 05:30 PM""],""sat"":[""09:00 AM - 06:30 PM""],""sun"":""0""}";"2021-02-09 19:11:23";"2022-02-19 04:41:20";"0";NULL;NULL;NULL;NULL;"mount-vernon-carpet-one-floor-and-home-mount-vernon";NULL
"84";"Emser Tile - La Vista NE";;"11941 Centennial Road, Suite 6";"La Vista";"NE";"68128";"223";"41.169704";"-96.099639";"402-339-8453";;;;;"0";"0";NULL;"{""mon"":[""07:30 AM - 05:00 PM""],""tue"":[""07:30 AM - 05:00 PM""],""wed"":[""07:30 AM - 05:00 PM""],""thu"":[""07:30 AM - 05:00 PM""],""fri"":[""07:30 AM - 05:00 PM""],""sat"":[""08:00 AM - 01:00 PM""],""sun"":""0""}";"2021-02-10 17:59:03";NULL;"0";NULL;NULL;NULL;NULL;NULL;NULL
"85";"Daltile Plymouth Meeting";;"5105 Campus Dr";"Plymouth Meeting";"PA";"19462";"223";"40.1142465";"-75.265862";"610-825-5381";;;"https://www.hydroblok.com/find-a-dealer/daltile-plymouth-meeting/";;"0";"0";"0";"{""mon"":[""07:00 AM - 05:00 PM""],""tue"":[""07:00 AM - 05:00 PM""],""wed"":[""07:00 AM - 05:00 PM""],""thu"":[""07:00 AM - 05:00 PM""],""fri"":[""07:00 AM - 05:00 PM""],""sat"":""0"",""sun"":""0""}";"2021-02-12 17:49:37";"2022-02-21 20:22:23";"0";NULL;NULL;NULL;NULL;"daltile-plymouth-meeting-plymouth-meeting";NULL
"86";"Weilers Kitchens & Bath Designs";;"350 Bustleton Pike";"Feasterville-Trevose";"PA";"19053";"223";"40.143743";"-75.0056642";"215-357-9300";;;"https://www.hydroblok.com/find-a-dealer/weilers-kitchens-bath-designs/";;"0";"0";"0";"{""mon"":[""07:00 AM - 05:00 PM""],""tue"":[""07:00 AM - 05:00 PM""],""wed"":[""07:00 AM - 05:00 PM""],""thu"":[""07:00 AM - 05:00 PM""],""fri"":[""07:00 AM - 05:00 PM""],""sat"":[""09:00 AM - 02:00 PM""],""sun"":""0""}";"2021-02-12 18:56:26";"2022-02-21 20:04:50";"0";NULL;NULL;NULL;NULL;"weilers-kitchens-bath-designs-feasterville-trevose";NULL
"87";"Clarks Building & Decorating";;"417 Westinghouse Dr";"Hot Springs National Park";"AR";"71901";"223";"34.4954462";"-92.9850171";"(501) 262-2262";;;"https://www.hydroblok.com/find-a-dealer/clarks-building-decorating-center/";;"0";"0";"0";"{""mon"":[""07:30 AM - 05:00 PM""],""tue"":[""07:30 AM - 05:00 PM""],""wed"":[""07:30 AM - 05:00 PM""],""thu"":[""07:30 AM - 05:00 PM""],""fri"":[""07:30 AM - 05:00 PM""],""sat"":[""08:00 AM - 03:00 PM""],""sun"":""0""}";"2021-02-12 19:01:59";"2022-02-21 21:38:40";"0";NULL;NULL;NULL;NULL;"clarks-building-decorating-hot-springs-national-park";NULL
"88";"EMCO / Ensuite Windsor";;"2740 Temple Dr";"Windsor";"ON";"N8W 5J5";"38";"42.2881061";"-82.9779609";"(519) 948-8131";;;"https://www.hydroblok.com/find-a-dealer/emco-ensuite-windsor/";;"0";"0";"0";"{""mon"":[""07:00 AM - 04:30 PM""],""tue"":[""07:00 AM - 04:30 PM""],""wed"":[""07:00 AM - 04:30 PM""],""thu"":[""07:00 AM - 04:30 PM""],""fri"":[""07:00 AM - 04:30 PM""],""sat"":[""09:00 AM - 01:00 PM""],""sun"":""0""}";"2021-02-12 19:04:45";"2022-01-16 19:03:36";"0";NULL;NULL;NULL;NULL;"emco-ensuite-windsor-windsor";NULL
"89";"EMCO";;"300 Fee St";"North Bay";"ON";"P1B 8G5";"38";"46.3249727";"-79.48921059999999";"(705) 476-0701";;;"https://www.hydroblok.com/find-a-dealer/emco-emco-north-bay/";;"0";"0";"0";"{""mon"":[""06:30 AM - 05:00 PM""],""tue"":[""06:30 AM - 05:00 PM""],""wed"":[""06:30 AM - 05:00 PM""],""thu"":[""06:30 AM - 05:00 PM""],""fri"":[""06:30 AM - 05:00 PM""],""sat"":""0"",""sun"":""0""}";"2021-02-12 19:06:40";"2022-02-21 20:16:47";"0";NULL;NULL;NULL;NULL;"emco-north-bay";NULL
"90";"Showroom Flooring";;"870 Cliffe Ave";"Courtenay";"BC";"V9N 2J7";"38";"49.6888081";"-124.9952123";"(250) 871-8453";;"sales@showroomflooring.ca";"https://showroomflooring.ca/";;"0";"0";"0";"{""mon"":[""09:00 AM - 05:00 PM""],""tue"":[""09:00 AM - 05:00 PM""],""wed"":[""09:00 AM - 05:00 PM""],""thu"":[""09:00 AM - 05:00 PM""],""fri"":[""09:00 AM - 05:00 PM""],""sat"":""0"",""sun"":""0""}";"2021-02-12 19:09:50";"2023-12-05 21:29:03";"0";NULL;NULL;NULL;NULL;"showroom-flooring-courtenay";NULL
"91";"Daltile Santa Rosa CA";;"258 Sutton Pl Ste # 101";"Santa Rosa";"CA";"95407";"223";"38.3903391";"-122.721755";"707-588-0842";;;"https://www.hydroblok.com/find-a-dealer/daltile-santa-rosa-ca/";;"0";"0";"0";"{""mon"":[""07:30 AM - 04:00 PM""],""tue"":[""07:30 AM - 04:00 PM""],""wed"":[""07:30 AM - 04:00 PM""],""thu"":[""07:30 AM - 04:00 PM""],""fri"":[""07:30 AM - 04:00 PM""],""sat"":""0"",""sun"":""0""}";"2021-02-16 20:32:23";"2022-02-19 04:54:44";"0";NULL;NULL;NULL;NULL;"daltile-santa-rosa-ca-santa-rosa";NULL
"92";"EMCO Corporation";;"800 Wilson Rd S #2";"Oshawa";"Ontario";"L1H 6E8";"38";"43.879735";"-78.834927";"(905) 723-1173";;;"https://www.hydroblok.com/find-a-dealer/emco-emco-oshawa/";;"0";"0";"0";"{""mon"":[""07:00 AM - 04:30 PM""],""tue"":[""07:00 AM - 04:30 PM""],""wed"":[""07:00 AM - 04:30 PM""],""thu"":[""07:00 AM - 04:30 PM""],""fri"":[""07:00 AM - 04:30 PM""],""sat"":""0"",""sun"":""0""}";"2021-04-07 22:18:49";"2022-02-21 20:18:34";"0";NULL;NULL;NULL;NULL;"emco-corporation-oshawa";NULL
"93";"Insulation and Supply - Manitowoc";;"1129 S 41st Street";"Manitowoc";"WI";"54220";"223";"44.0866485";"-87.697785";"1-800-242-7619";;;"https://www.hydroblok.com/find-a-dealer/insulation-supply-manitowoc/";;"0";"0";"0";"{""mon"":[""08:00 AM - 04:30 PM""],""tue"":[""08:00 AM - 04:30 PM""],""wed"":[""08:00 AM - 04:30 PM""],""thu"":[""08:00 AM - 04:30 PM""],""fri"":[""08:00 AM - 04:30 PM""],""sat"":""0"",""sun"":""0""}";"2021-04-08 19:47:21";"2022-01-16 18:36:46";"0";NULL;NULL;NULL;NULL;"insulation-and-supply-manitowoc-manitowoc";NULL
"94";"Insulation and Supply - Green Bay";;"3158 Market St";"Green Bay";"WI";"54304";"223";"44.4635666";"-88.08583980000002";"1-800-472-0048";;;"https://www.hydroblok.com/find-a-dealer/insulation-supply-green-bay/";;"0";"0";"0";"{""mon"":[""07:00 AM - 04:30 PM""],""tue"":[""07:00 AM - 04:30 PM""],""wed"":[""07:00 AM - 04:30 PM""],""thu"":[""07:00 AM - 04:30 PM""],""fri"":[""07:00 AM - 04:30 PM""],""sat"":""0"",""sun"":""0""}";"2021-04-08 19:47:39";"2022-01-16 18:40:58";"0";NULL;NULL;NULL;NULL;"insulation-and-supply-green-bay-green-bay";NULL
"95";"Insulation and Supply - Greenville";;"N1044 Quality Dr.";"Greenville";"WI";"54942";"223";"44.2783713";"-88.5076473";"1-800-223-1061";;;"https://www.hydroblok.com/find-a-dealer/insulation-and-supply-greenville/";;"0";"0";"0";"{""mon"":[""08:00 AM - 04:30 PM""],""tue"":[""08:00 AM - 04:30 PM""],""wed"":[""08:00 AM - 04:30 PM""],""thu"":[""08:00 AM - 04:30 PM""],""fri"":[""08:00 AM - 04:30 PM""],""sat"":""0"",""sun"":""0""}";"2021-04-08 19:49:19";"2022-01-16 18:42:08";"0";NULL;NULL;NULL;NULL;"insulation-and-supply-greenville-greenville";NULL
"96";"Continental Flooring Installation";;"1395 Alpha Lake Rd.";"Whistler";"BC";"V0N 1B1";"38";"50.089897";"-123.0311251";"604-962-8453";;;"https://www.hydroblok.com/find-a-dealer/continental-flooring-installation/";;"0";"1";"0";"{""mon"":[""08:30 AM - 05:30 PM""],""tue"":[""08:30 AM - 05:55 PM""],""wed"":[""08:30 AM - 05:30 PM""],""thu"":[""08:30 AM - 05:30 PM""],""fri"":[""08:30 AM - 05:30 PM""],""sat"":""0"",""sun"":""0""}";"2021-06-17 18:08:55";"2022-01-18 18:54:49";"0";NULL;NULL;NULL;NULL;"continental-flooring-installation-whistler";NULL
"97";"Daltile Loveland CO";;"5741 Earhart Rd";"Loveland";"CO";"80538";"223";"40.4508133";"-104.9952031";"970-622-9741";;;"https://www.hydroblok.com/find-a-dealer/daltile-daltile-loveland-co/";;"0";"1";"0";"{""mon"":[""07:00 AM - 04:00 PM""],""tue"":[""07:00 AM - 04:00 PM""],""wed"":[""07:00 AM - 04:00 PM""],""thu"":[""07:00 AM - 04:00 PM""],""fri"":[""07:00 AM - 04:00 PM""],""sat"":""1"",""sun"":""1""}";"2021-06-21 21:05:49";"2022-02-19 05:07:58";"0";NULL;NULL;NULL;NULL;"daltile-loveland-co-loveland";NULL
"99";"Ceramic Tileworks Center, Omaha, NE";;"11005 W. Maple Road";"Omaha";"NE";"68164";"223";"41.2876869";"-96.0849238";"402-493-1567";;;"https://www.hydroblok.com/find-a-dealer/ceramic-tileworks-center/";;"0";"1";"0";"{""mon"":[""08:00 AM - 07:30 PM""],""tue"":[""08:00 AM - 07:30 PM""],""wed"":[""08:00 AM - 07:30 PM""],""thu"":[""08:00 AM - 07:30 PM""],""fri"":[""08:00 AM - 06:00 PM""],""sat"":[""09:00 AM - 04:00 PM""],""sun"":""0""}";"2021-08-31 20:29:33";"2022-02-21 22:05:40";"0";NULL;NULL;NULL;NULL;"ceramic-tileworks-center-omaha-ne-omaha";NULL
"100";"Emser Tile, Wichita KS";;"2333 S West St Suite 301";"Wichita";"KS";"67213";"223";"37.653014";"-97.3903785";"316-943-1441";;;"https://www.hydroblok.com/find-a-dealer/emser-emser-wichita/";;"0";"1";"0";"{""mon"":[""07:30 AM - 04:00 PM""],""tue"":[""07:30 AM - 04:00 PM""],""wed"":[""07:30 AM - 04:00 PM""],""thu"":[""07:30 AM - 04:00 PM""],""fri"":[""07:30 AM - 04:00 PM""],""sat"":""0"",""sun"":""0""}";"2021-08-31 20:31:53";"2022-02-21 22:00:30";"0";NULL;NULL;NULL;NULL;"emser-tile-wichita-ks-wichita";NULL
"101";"Signature Interior Expressions, Neosho MO";;"12650 Hammer Rd";"Neosho";"MO";"64850";"223";"36.8856371";"-94.4262768";"417-451-0535";;;"https://www.hydroblok.com/find-a-dealer/signature-interior-expressions-signature-interior-expressions-neosho-mo/";;"0";"1";"0";"{""mon"":""0"",""tue"":[""09:00 AM - 05:00 PM""],""wed"":[""09:00 AM - 05:00 PM""],""thu"":[""09:00 AM - 05:00 PM""],""fri"":[""09:00 AM - 05:00 PM""],""sat"":""0"",""sun"":""0""}";"2021-08-31 20:35:23";"2022-03-10 22:10:54";"0";NULL;NULL;NULL;NULL;"signature-interior-expressions-neosho-mo-neosho";NULL
"102";"Emser Tile, La Vista NE";;"11941 Centennial Rd Suite #6";"La Vista";"NE";"68128";"223";"41.169704";"-96.099639";"402-339-8453";;;"https://www.hydroblok.com/find-a-dealer/emser-emser-omaha/";;"0";"1";"0";"{""mon"":[""07:00 AM - 05:00 PM""],""tue"":[""07:00 AM - 05:00 PM""],""wed"":[""07:00 AM - 05:00 PM""],""thu"":[""07:00 AM - 05:00 PM""],""fri"":[""07:00 AM - 05:00 PM""],""sat"":""0"",""sun"":""0""}";"2021-08-31 20:38:20";"2022-02-21 22:07:12";"0";NULL;NULL;NULL;NULL;"emser-tile-la-vista-ne-la-vista";NULL
"103";"Emser Tile, Little Rock AR";;"10068 Maumelle Blvd";"Little Rock";"AR";"72113";"223";"34.8218666";"-92.3729553";;;;"https://www.hydroblok.com/find-a-dealer/emser-emser-little-rock/";;"0";"1";"0";"{""mon"":[""06:30 AM - 04:00 PM""],""tue"":[""06:30 AM - 04:00 PM""],""wed"":[""06:30 AM - 04:00 PM""],""thu"":[""06:30 AM - 04:00 PM""],""fri"":[""06:30 AM - 04:00 PM""],""sat"":""0"",""sun"":""0""}";"2021-08-31 20:41:56";"2022-02-21 21:45:28";"0";NULL;NULL;NULL;NULL;"emser-tile-little-rock-ar-little-rock";NULL
"104";"Daltile Maryland Heights, MO";;"2059 Westport Center Dr";"Maryland Heights";"MO";"63146";"223";"38.69539140000001";"-90.4222125";"(314) 997-6970";;;"https://www.hydroblok.com/find-a-dealer/daltile-daltile-maryland-heights/";;"0";"1";"0";"{""mon"":[""08:00 AM - 04:30 PM""],""tue"":[""08:00 AM - 04:00 AM""],""wed"":[""08:00 AM - 04:00 AM""],""thu"":[""08:00 AM - 04:00 AM""],""fri"":[""08:30 AM - 04:00 PM""],""sat"":[""09:00 AM - 01:00 PM""],""sun"":""0""}";"2021-09-17 17:41:24";"2022-02-21 21:37:01";"0";NULL;NULL;NULL;NULL;"daltile-maryland-heights-mo-maryland-heights";NULL
"105";"Daltile Knoxville, TN";;"1714 Louisville Dr. Ste B";"Knoxville, TN";"TN";"37921-5903";"223";"35.9603772";"-84.011223";"(865) 588-2155";;;"https://www.hydroblok.com/find-a-dealer/daltile-daltile-knoxville/";;"0";"1";"0";"{""mon"":[""07:00 AM - 04:30 PM""],""tue"":[""07:00 AM - 04:30 PM""],""wed"":[""07:00 AM - 04:30 PM""],""thu"":[""07:00 AM - 04:30 PM""],""fri"":[""07:00 AM - 04:30 PM""],""sat"":""0"",""sun"":""0""}";"2021-09-17 17:43:17";"2022-02-21 21:30:41";"0";NULL;NULL;NULL;NULL;"daltile-knoxville-tn-knoxville-tn";NULL
"106";"Daltile Burr Ridge, IL";;"7600 South Grant St.";"Burr Ridge, IL";"IL";"60527";"223";"41.7493846";"-87.93056949999999";"(630) 789-1400";;;"https://www.hydroblok.com/find-a-dealer/daltile-daltile-burr-ridge/";;"0";"1";"0";"{""mon"":[""07:00 AM - 04:00 PM""],""tue"":[""07:00 AM - 04:00 PM""],""wed"":[""07:00 AM - 04:00 PM""],""thu"":[""07:00 AM - 04:00 PM""],""fri"":[""07:00 AM - 04:00 PM""],""sat"":""0"",""sun"":""0""}";"2021-09-17 17:45:01";"2022-02-21 21:33:46";"0";NULL;NULL;NULL;NULL;"daltile-burr-ridge-il-burr-ridge-il";NULL
"107";"Daltile South Bend, IN";;"3235 Rosetta Place Dr. Ste # 1";"South Bend, IN";"IN";"46628";"223";"41.7125953";"-86.29717910000001";;;;"https://www.hydroblok.com/find-a-dealer/daltile-daltile-south-bend/";;"0";"1";"0";"{""mon"":[""07:30 AM - 04:00 PM""],""tue"":[""07:30 AM - 04:00 PM""],""wed"":[""07:30 AM - 04:00 PM""],""thu"":[""07:30 AM - 04:00 PM""],""fri"":[""07:30 AM - 04:00 PM""],""sat"":""0"",""sun"":""0""}";"2021-09-17 17:47:10";"2022-02-21 21:32:27";"0";NULL;NULL;NULL;NULL;"daltile-south-bend-in-south-bend-in";NULL
"108";"Daltile Springdale, AR";;"373-A Agnes Drive ";"Springdale, AR";"AR";"72762-4134";"223";"36.1725586";"-94.22605320000001";"(479) 361-5825";;;"https://www.hydroblok.com/find-a-dealer/daltile-daltile-springdale/";;"0";"1";"0";"{""mon"":[""07:30 AM - 04:30 PM""],""tue"":[""07:30 AM - 04:30 PM""],""wed"":[""07:30 AM - 04:30 PM""],""thu"":[""07:30 AM - 04:30 PM""],""fri"":[""07:30 AM - 04:30 PM""],""sat"":""0"",""sun"":""0""}";"2021-09-17 17:48:48";"2022-02-21 21:47:23";"0";NULL;NULL;NULL;NULL;"daltile-springdale-ar-springdale-ar";NULL
"109";"Carolina Tile and Stone, Cornelius, NC";;"19020 Statesville Rd";"Cornelius, NC";"NC";"28031";"223";"35.4735146";"-80.87397";"(704) 892-2442";;;"https://www.hydroblok.com/find-a-dealer/carolina-tile-and-stone/";;"0";"1";"0";"{""mon"":[""09:00 AM - 05:00 PM""],""tue"":[""09:00 AM - 05:00 PM""],""wed"":[""09:00 AM - 05:00 PM""],""thu"":[""09:00 AM - 05:00 PM""],""fri"":[""09:00 AM - 05:00 PM""],""sat"":[""10:00 AM - 02:00 PM""],""sun"":""0""}";"2021-09-17 17:50:53";"2022-02-21 21:29:06";"0";NULL;NULL;NULL;NULL;"carolina-tile-and-stone-cornelius-nc-cornelius-nc";NULL
"112";"Ralph's Floors, Lynden, WA";;"1842 Front Street";"Lynden";"WA";"98264-1723";"223";"48.939556";"-122.4772879";"(360) 227-8494";;;"https://www.hydroblok.com/find-a-dealer/Ralphs-Floors-Lynden-WA/";;"0";"1";"0";"{""mon"":[""08:30 AM - 05:30 PM""],""tue"":[""08:30 AM - 05:30 PM""],""wed"":[""08:30 AM - 05:30 PM""],""thu"":[""08:30 AM - 05:30 PM""],""fri"":[""08:30 AM - 05:30 PM""],""sat"":[""09:00 AM - 05:00 PM""],""sun"":""0""}";"2021-09-29 16:39:53";"2022-02-19 04:38:08";"0";NULL;NULL;NULL;NULL;"ralph-s-floors-lynden-wa-lynden";NULL
"113";"Emser Tile";;"10550 Lackman Rd";"Lenexa";"KS";"66219";"223";"38.93722580000001";"-94.76140540000002";"(913) 894-4888 ";;;"https://www.hydroblok.com/find-a-dealer/emser-emser-kansas/";;"0";"1";"0";"{""mon"":[""06:30 AM - 04:00 PM""],""tue"":[""06:30 AM - 04:00 PM""],""wed"":[""06:30 AM - 04:00 PM""],""thu"":[""06:30 AM - 04:00 PM""],""fri"":[""06:30 AM - 04:00 PM""],""sat"":[""08:00 AM - 01:00 PM""],""sun"":""0""}";"2021-10-21 21:01:55";"2022-02-21 21:58:47";"0";NULL;NULL;NULL;NULL;"emser-tile-lenexa";NULL
"114";"Mckenna DIstribution";"We can provide you with your entire flooring system from underlayment to surface protection, finishing trims and everything in between.";"620 Vennels St.";"Regina";"SK";"S4N5S5";"38";"50.46878719999999";"-104.5771278";"306-359-7755";"306-525-9050";"info@mckdist.com";"https://www.hydroblok.com/find-a-dealer/mckenna-distribution/";"We work hard to select products and lines that you and your customers will love for years after your project is complete.";"0";"1";"1";"{""mon"":[""08:00 AM - 05:00 PM""],""tue"":[""08:00 AM - 05:00 PM""],""wed"":[""08:00 AM - 05:00 PM""],""thu"":[""08:00 AM - 05:00 PM""],""fri"":[""08:00 AM - 05:00 PM""],""sat"":""0"",""sun"":""0""}";"2021-12-21 15:26:31";"2023-12-22 02:31:27";"0";NULL;NULL;NULL;NULL;"mckenna-distribution-regina";NULL
"115";"Daltile / Daltile Columbus";"Daltile is the best-selling tile brand in America and the largest ceramic manufacturer in the world. Our team is dedicated to creating the best value for our customers through innovative, high-quality products and exceptional customer service.  Unlike most of our competitors, many of our collections are proudly designed, developed, and manufactured in the USA.";"730 Dearborn Park Ln";"Columbus";"OH";"43085";"223";"40.1167844";"-82.9974692";"(614) 433-9181";;"Columbus.SSC219@Daltile.com";"https://www.hydroblok.com/find-a-dealer/daltile-daltile-columbus/";;"4";"1";"0";"{""mon"":[""07:30 AM - 04:00 PM""],""tue"":[""07:30 AM - 04:00 AM""],""wed"":[""07:30 AM - 04:00 AM""],""thu"":[""07:30 AM - 04:00 AM""],""fri"":[""07:00 AM - 04:00 AM""],""sat"":""0"",""sun"":""0""}";"2022-01-13 20:17:12";"2022-01-16 18:43:01";"0";NULL;NULL;NULL;NULL;"daltile-daltile-columbus-columbus";NULL
"116";"Daltile / Daltile St.Louis";"Daltile is the best-selling tile brand in America and the largest ceramic manufacturer in the world. Our team is dedicated to creating the best value for our customers through innovative, high-quality products and exceptional customer service.  Unlike most of our competitors, many of our collections are proudly designed, developed, and manufactured in the USA.";"2051 Westport Center Dr";"St. Louis";"MO";"63146";"223";"38.6944753";"-90.4221519";"(314) 824-1367";;"Columbus.SSC219@Daltile.com";"https://www.hydroblok.com/find-a-dealer/daltile-daltile-st-louis/";;"4";"1";"0";"{""mon"":[""07:30 AM - 04:00 PM""],""tue"":[""07:30 AM - 04:00 PM""],""wed"":[""07:30 AM - 04:00 PM""],""thu"":[""07:30 AM - 04:00 PM""],""fri"":[""07:30 AM - 04:00 PM""],""sat"":[""09:00 AM - 01:00 PM""],""sun"":""0""}";"2022-01-13 20:21:20";"2022-01-16 18:44:10";"0";NULL;NULL;NULL;NULL;"daltile-daltile-st-louis-st-louis";NULL
"117";"Gordon Wall Windows & Floors ";;"801 Victoria St";"Trail";"BC";"V1R 3T3";"38";"49.0968768";"-117.7117095";"(250) 364-2537";;;"https://www.hydroblok.com/find-a-dealer/gw-floors-gordon-walls-windows-floors/";;"0";"1";"0";"{""mon"":""0"",""tue"":""0"",""wed"":""0"",""thu"":""0"",""fri"":""0"",""sat"":""0"",""sun"":""0""}";"2022-01-25 19:44:02";"2022-05-23 03:50:31";"0";NULL;NULL;NULL;NULL;"gordon-wall-windows-floors-trail";NULL
"118";"Home Hardware Nelson ";;"101 Mcdonald Drive";"Nelson";"BC";"V1L 6B2";"38";"49.4934924";"-117.2991534";"(250) 352-1919";;;"https://www.hydroblok.com/find-a-dealer/home-hardware-nelson/";;"0";"1";"0";"{""mon"":""0"",""tue"":""0"",""wed"":""0"",""thu"":""0"",""fri"":""0"",""sat"":""0"",""sun"":""0""}";"2022-01-25 19:48:42";"2022-05-23 03:49:51";"0";NULL;NULL;NULL;NULL;"home-hardware-nelson-nelson";NULL
"119";"Floor Store Salmon Arm";;"241  5th St SW";"Salmon Arm";"BC";"V1E 1S9";"38";"50.698535";"-119.291987";"(250) 832-1944";;;"https://www.hydroblok.com/find-a-dealer/floor-store-salmon-arm/";;"0";"1";"0";"{""mon"":""0"",""tue"":""0"",""wed"":""0"",""thu"":""0"",""fri"":""0"",""sat"":""0"",""sun"":""0""}";"2022-01-25 21:28:40";"2022-05-23 03:49:22";"0";NULL;NULL;NULL;NULL;"floor-store-salmon-arm-salmon-arm";NULL
"120";"Northern Capital Wood Products";;"381 McAloney Road, Unit C";"Prince George";"BC";"V2K 4L2";"38";"53.92837069999999";"-122.7742467";"(250) 564-6171";;"ncwpwood@telus.net";"https://www.hydroblok.com/find-a-dealer/northern-capital-wood-products/";;"0";"1";"0";"{""mon"":""0"",""tue"":""0"",""wed"":""0"",""thu"":""0"",""fri"":""0"",""sat"":""0"",""sun"":""0""}";"2022-01-25 21:41:41";"2023-12-05 21:35:16";"0";NULL;NULL;NULL;NULL;"northern-capital-wood-products-prince-george";NULL
"121";"Canada Flooring Enterprises Ltd. ";;"9049 Quartz Road";"Whitehorse";"YT";"Y1A 4Z5";"38";"60.7367903";"-135.0805894";"(867) 667-7290";;;"https://www.hydroblok.com/find-a-dealer/canada-flooring-enterprises-ltd/";;"0";"1";"0";"{""mon"":""0"",""tue"":""0"",""wed"":""0"",""thu"":""0"",""fri"":""0"",""sat"":""0"",""sun"":""0""}";"2022-01-25 21:43:29";"2022-05-23 03:48:13";"0";NULL;NULL;NULL;NULL;"canada-flooring-enterprises-ltd-whitehorse";NULL
"122";"G&J Design Flooring";;"1295 Hwy 97 N";"Quesnel";"BC";"V2J 2Y5";"38";"52.9952689";"-122.509518";"250-992-2272";;;"https://www.hydroblok.com/find-a-dealer/gj-design-flooring/";;"0";"1";"0";"{""mon"":""0"",""tue"":""0"",""wed"":""0"",""thu"":""0"",""fri"":""0"",""sat"":""0"",""sun"":""0""}";"2022-01-25 21:46:40";"2022-05-23 03:47:44";"0";NULL;NULL;NULL;NULL;"g-j-design-flooring-quesnel";NULL
"123";"The Tile Guy Flooring LTD. ";;"4413-29th Street";"Vernon";"BC";"V1T 5B7";"38";"50.2771766";"-119.2696361";"250-545-8453";;;"https://www.hydroblok.com/find-a-dealer/the-tile-guy-flooring-ltd/";;"0";"1";"0";"{""mon"":""0"",""tue"":""0"",""wed"":""0"",""thu"":""0"",""fri"":""0"",""sat"":""0"",""sun"":""0""}";"2022-01-25 21:48:52";"2022-05-23 03:46:39";"0";NULL;NULL;NULL;NULL;"the-tile-guy-flooring-ltd-vernon";NULL
"124";"Southwest Flooring & Supply ";;"1102 Chief Mountain Ave, Bay 100/200";"Pincher Creek";"AB";"T0K 1W0";"38";"49.5002815";"-113.9438182";"(403) 308-7050";;;"https://www.hydroblok.com/find-a-dealer/southwest-flooring-supply/";;"0";"1";"0";"{""mon"":""0"",""tue"":""0"",""wed"":""0"",""thu"":""0"",""fri"":""0"",""sat"":""0"",""sun"":""0""}";"2022-01-25 21:51:09";"2022-05-23 03:46:06";"0";NULL;NULL;NULL;NULL;"southwest-flooring-supply-pincher-creek";NULL
"125";"The Flooring Hub";;"5137-26th Street";"Vernon";"BC";"V1T 8G4";"38";"50.28440080000001";"-119.2661196";"(778) 475-7700";;;"https://www.hydroblok.com/find-a-dealer/the-flooring-hub/";;"0";"1";"0";"{""mon"":""0"",""tue"":""0"",""wed"":""0"",""thu"":""0"",""fri"":""0"",""sat"":""0"",""sun"":""0""}";"2022-01-25 21:54:29";"2022-05-23 03:45:13";"0";NULL;NULL;NULL;NULL;"the-flooring-hub-vernon";NULL
"126";"Pacific Coast Floor Coverings Inc. ";;"2374 Millstream Rd.";"Victoria";"BC";"V9B 3R3";"38";"48.4628323";"-123.4990989";"(250) 474-0411";;;"https://www.hydroblok.com/find-a-dealer/pacific-coast-floor-coverings-inc/";;"0";"1";"0";"{""mon"":""0"",""tue"":""0"",""wed"":""0"",""thu"":""0"",""fri"":""0"",""sat"":""0"",""sun"":""0""}";"2022-01-25 21:55:39";"2022-05-23 03:44:36";"0";NULL;NULL;NULL;NULL;"pacific-coast-floor-coverings-inc-victoria";NULL
"127";"Prodigy Interiors Inc. ";;"191 Eversyde Circle SW";"Calgary";"AB";"T2Y 4T4";"38";"50.9088998";"-114.1086631";"403-589-4419";;;"https://www.hydroblok.com/find-a-dealer/prodigy-interiors-inc/";;"0";"1";"0";"{""mon"":""0"",""tue"":""0"",""wed"":""0"",""thu"":""0"",""fri"":""0"",""sat"":""0"",""sun"":""0""}";"2022-01-25 21:57:50";"2022-05-23 03:43:47";"0";NULL;NULL;NULL;NULL;"prodigy-interiors-inc-calgary";NULL
"128";"Contemporary Bathrooms C/O Rosedale";;"5620 68 Avenue Southeast Bay 2";"Calgary";"AB";"T2C 5L1";"38";"50.99511330000001";"-113.9502793";"(403) 291-2200";;;"https://www.hydroblok.com/find-a-dealer/contemporary-bathrooms-c-o-rosedale/";;"0";"1";"0";"{""mon"":""0"",""tue"":""0"",""wed"":""0"",""thu"":""0"",""fri"":""0"",""sat"":""0"",""sun"":""0""}";"2022-01-25 21:59:07";"2022-05-23 03:42:28";"0";NULL;NULL;NULL;NULL;"contemporary-bathrooms-c-o-rosedale-calgary";NULL
"129";"Tileworks & Frontier Irrigation ";;"1702 2 Ave S";"Lethbridge";"AB";"T1J 0G3";"38";"49.69734829999999";"-112.8174818";"403-328-6197";;;"https://www.hydroblok.com/find-a-dealer/tileworks-frontier-irrigation/";;"0";"1";"0";"{""mon"":""0"",""tue"":""0"",""wed"":""0"",""thu"":""0"",""fri"":""0"",""sat"":""0"",""sun"":""0""}";"2022-01-25 22:01:02";"2022-05-23 03:39:37";"0";NULL;NULL;NULL;NULL;"tileworks-frontier-irrigation-lethbridge";NULL
"130";"Best Tile & Wood II Inc";;"69 State Rt. 31,";"Flemigton";"NJ";"08822";"223";"40.5131239";"-74.8519467";"(908) 782-6707";;;"https://www.hydroblok.com/find-a-dealer/best-tile-wood-ii-inc/";;"0";"1";"0";"{""mon"":""0"",""tue"":""0"",""wed"":""0"",""thu"":""0"",""fri"":""0"",""sat"":""0"",""sun"":""0""}";"2022-03-27 13:35:01";"2022-05-23 03:38:46";"0";NULL;NULL;NULL;NULL;"best-tile-wood-ii-inc-flemigton";NULL
"131";"Buffalo Glass Block";;"520 Hinman Ave";"Buffalo";"NY";"14216";"223";"42.9562759";"-78.8885749";" (716) 873-3553";;;"https://www.hydroblok.com/find-a-dealer/buffalo-glass-block/";;"0";"1";"0";"{""mon"":""0"",""tue"":""0"",""wed"":""0"",""thu"":""0"",""fri"":""0"",""sat"":""0"",""sun"":""0""}";"2022-03-27 13:40:55";"2022-05-23 03:38:18";"0";NULL;NULL;NULL;NULL;"buffalo-glass-block-buffalo";NULL
"132";"Coast Tile and Marble";;"3168 Fire Rd";"Egg Harbor Township";"NJ";"08234";"223";"39.3869732";"-74.5678396";"(609) 646-9346";;;"https://www.hydroblok.com/find-a-dealer/coast-tile-and-marble/";;"0";"1";"0";"{""mon"":""0"",""tue"":""0"",""wed"":""0"",""thu"":""0"",""fri"":""0"",""sat"":""0"",""sun"":""0""}";"2022-03-27 13:44:32";"2022-05-23 03:37:44";"0";NULL;NULL;NULL;NULL;"coast-tile-and-marble-egg-harbor-township";NULL
"133";"Daltile Allentown";;"904 Marcon Blvd";"Allentown";"PA";"18109";"223";"40.6391816";"-75.4467628";"(610) 266-6688";;;"https://www.hydroblok.com/find-a-dealer/daltile-allentown/";;"0";"1";"0";"{""mon"":""0"",""tue"":""0"",""wed"":""0"",""thu"":""0"",""fri"":""0"",""sat"":""0"",""sun"":""0""}";"2022-03-27 13:47:43";"2022-05-23 03:34:24";"0";NULL;NULL;NULL;NULL;"daltile-allentown-allentown";NULL
"134";"Daltile Baton Rouge";;"12037 Airline Hwy";"Baton Rouge";"LA";"70817";"223";"30.3918226";"-91.0475155";"(225) 751-3194";;;"https://www.hydroblok.com/find-a-dealer/daltile-baton-rouge/";;"0";"1";"0";"{""mon"":""0"",""tue"":""0"",""wed"":""0"",""thu"":""0"",""fri"":""0"",""sat"":""0"",""sun"":""0""}";"2022-03-27 13:55:52";"2022-05-23 03:33:48";"0";NULL;NULL;NULL;NULL;"daltile-baton-rouge-baton-rouge";NULL
"135";"Daltile Daytona";;"703 Samms Ave Ste C";"Port Orange";"FL";"32129";"223";"29.1396331";"-80.99810219999999";"(386) 767-9561";;;"https://www.hydroblok.com/find-a-dealer/daltile-daytona/";;"0";"1";"0";"{""mon"":""0"",""tue"":""0"",""wed"":""0"",""thu"":""0"",""fri"":""0"",""sat"":""0"",""sun"":""0""}";"2022-03-27 14:48:46";"2022-05-23 03:33:13";"0";NULL;NULL;NULL;NULL;"daltile-daytona-port-orange";NULL
"136";"Daltile Fayetteville";;"373-A Agnes Dr";"Tontitown";"AR";"72762";"223";"36.1725488";"-94.22634599999999";"(479) 361-5825";;;"https://www.hydroblok.com/find-a-dealer/daltile-fayetteville/";;"0";"1";"0";"{""mon"":""0"",""tue"":""0"",""wed"":""0"",""thu"":""0"",""fri"":""0"",""sat"":""0"",""sun"":""0""}";"2022-03-27 14:55:21";"2022-05-23 03:32:38";"0";NULL;NULL;NULL;NULL;"daltile-fayetteville-tontitown";NULL
"137";"Daltile Jacksonville";;"9446 Philips Hwy";"Jacksonville";"FL";"32256";"223";"30.1947467";"-81.569159";"904-262-0444";;;"https://www.hydroblok.com/find-a-dealer/daltile-jacksonville/";;"0";"1";"0";"{""mon"":""0"",""tue"":""0"",""wed"":""0"",""thu"":""0"",""fri"":""0"",""sat"":""0"",""sun"":""0""}";"2022-03-27 14:57:29";"2022-05-23 03:31:41";"0";NULL;NULL;NULL;NULL;"daltile-jacksonville-jacksonville";NULL
"138";"Daltile Salisbury";;"2257 Northwood Dr Suite A";"SALISBURY";"MD";"21801";"223";"38.4052888";"-75.5765661";"(410) 546-1015";;;"https://www.hydroblok.com/find-a-dealer/daltile-salisbury/";;"0";"1";"0";"{""mon"":""0"",""tue"":""0"",""wed"":""0"",""thu"":""0"",""fri"":""0"",""sat"":""0"",""sun"":""0""}";"2022-03-27 15:00:36";"2022-05-23 03:31:08";"0";NULL;NULL;NULL;NULL;"daltile-salisbury-salisbury";NULL
"139";"Daltile Mechanicsburg";;"4750 WESTPORT DR STE 100";"MECHANICSBURG";"PA";"17055";"223";"40.2056662";"-76.954314";"(717) 795-0154";;;"https://www.hydroblok.com/find-a-dealer/daltile-mechanicsburg/";;"0";"1";"0";"{""mon"":""0"",""tue"":""0"",""wed"":""0"",""thu"":""0"",""fri"":""0"",""sat"":""0"",""sun"":""0""}";"2022-03-27 15:02:51";"2022-05-23 03:30:10";"0";NULL;NULL;NULL;NULL;"daltile-mechanicsburg-mechanicsburg";NULL
"140";"Daltile Pittsburgh";;"104 Parkway View Dr";"Pittsburgh";"PA";"15205";"223";"40.43275450000001";"-80.13205710000001";"(412) 787-2040";;;"https://www.hydroblok.com/find-a-dealer/daltile-pittsburgh/";;"0";"1";"0";"{""mon"":""0"",""tue"":""0"",""wed"":""0"",""thu"":""0"",""fri"":""0"",""sat"":""0"",""sun"":""0""}";"2022-03-27 15:07:49";"2022-05-23 03:29:44";"0";NULL;NULL;NULL;NULL;"daltile-pittsburgh-pittsburgh";NULL
"141";"Daltile Sarasota ";;"7450 26th Court East Unit 112";"Sarasota";"FL";"34243";"223";"27.4082776";"-82.5320243";"(941) 355-2954";;;"https://www.hydroblok.com/find-a-dealer/daltile-sarasota/";;"0";"1";"0";"{""mon"":""0"",""tue"":""0"",""wed"":""0"",""thu"":""0"",""fri"":""0"",""sat"":""0"",""sun"":""0""}";"2022-03-27 15:10:31";"2022-05-23 03:29:11";"0";NULL;NULL;NULL;NULL;"daltile-sarasota-sarasota";NULL
"142";"Daltile Springfield";;"2710 S Austin Ave";"Springfield";"MO";"65807";"223";"37.1661693";"-93.3241365";"(417) 883-4600";;;"https://www.hydroblok.com/find-a-dealer/daltile-springfield/";;"0";"1";"0";"{""mon"":""0"",""tue"":""0"",""wed"":""0"",""thu"":""0"",""fri"":""0"",""sat"":""0"",""sun"":""0""}";"2022-03-27 15:20:44";"2022-05-23 03:28:49";"0";NULL;NULL;NULL;NULL;"daltile-springfield-springfield";NULL
"143";"Emser Tile -  Los Angeles";;"8431 Santa Monica Blvd";"Los Angeles";"CA";"90069";"223";"34.0909183";"-118.3737241";"(502) 962-7255";;;"https://www.hydroblok.com/find-a-dealer/emser-tile-los-angeles/";;"0";"1";"0";"{""mon"":""0"",""tue"":""0"",""wed"":""0"",""thu"":""0"",""fri"":""0"",""sat"":""0"",""sun"":""0""}";"2022-03-27 15:29:39";"2022-05-23 03:28:19";"0";NULL;NULL;NULL;NULL;"emser-tile-los-angeles-los-angeles";NULL
"144";"Five Star Bath Solutions";;"6008 E 1245 Mile Road";"Warren";"MI";"48092";"223";"42.47673";"-83.08448299999999";;;;"https://www.hydroblok.com/find-a-dealer/five-star-bath-solutions/";;"0";"1";"1";"{""mon"":""0"",""tue"":""0"",""wed"":""0"",""thu"":""0"",""fri"":""0"",""sat"":""0"",""sun"":""0""}";"2022-03-27 15:33:51";"2022-05-23 03:27:48";"0";NULL;NULL;NULL;NULL;"five-star-bath-solutions-warren";NULL
"146";"Hunt Valley Tile & Stone";;"11110 Pepper Rd Suite D";"Hunt Valley";"MD";"21031";"223";"39.4895579";"-76.6549296";"(410)-771-6441";;;"hhttps://www.hydroblok.com/find-a-dealer/hunt-valley-tile-stone/";;"0";"1";"0";"{""mon"":""0"",""tue"":""0"",""wed"":""0"",""thu"":""0"",""fri"":""0"",""sat"":""0"",""sun"":""0""}";"2022-03-27 15:58:50";"2022-05-23 03:26:45";"0";NULL;NULL;NULL;NULL;"hunt-valley-tile-stone-hunt-valley";NULL
"147";"Natural Stone and Tile";;"8875 Bash St";"Indianapolis";"IN";"46256";"223";"39.9163657";"-86.0410529";"(317) 863-5926";;;"https://www.hydroblok.com/find-a-dealer/natural-stone-and-tile/";;"0";"1";"0";"{""mon"":""0"",""tue"":""0"",""wed"":""0"",""thu"":""0"",""fri"":""0"",""sat"":""0"",""sun"":""0""}";"2022-03-27 16:00:57";"2022-05-23 03:25:44";"0";NULL;NULL;NULL;NULL;"natural-stone-and-tile-indianapolis";NULL
"148";"Minnesota Tile & Stone - Lakeville";;"17615 Kenrick Ave.";"Lakeville";"MN";"55044";"223";"44.6939475";"-93.2881524";"(952) 898-1960";;;"https://www.hydroblok.com/find-a-dealer/minnesota-tile-stone/";;"0";"1";"on";"{""mon"":[""09:30 AM - 06:30 PM""],""tue"":[""09:30 AM - 06:30 PM""],""wed"":[""09:30 AM - 06:30 PM""],""thu"":[""09:30 AM - 06:30 PM""],""fri"":[""09:30 AM - 06:30 PM""],""sat"":[""09:30 AM - 06:30 PM""],""sun"":[""09:30 AM - 06:30 PM""]}";"2022-10-03 19:36:18";NULL;"0";NULL;NULL;NULL;NULL;"minnesota-tile-stone-lakeville-lakeville";NULL
"149";"Minnesota Tile & Stone - Plymouth";;"1797 Xenium Ln N";"Plymouth";"MN";"55441";"223";"44.99871880000001";"-93.45193379999999";"(763) 233-7060";;;"https://www.hydroblok.com/find-a-dealer/minnesota-tile-stone-plymouth/";;"0";"1";"0";"{""mon"":[""09:30 AM - 06:30 PM""],""tue"":[""09:30 AM - 06:30 PM""],""wed"":[""09:30 AM - 06:30 PM""],""thu"":[""09:30 AM - 06:30 PM""],""fri"":[""09:30 AM - 06:30 PM""],""sat"":[""09:30 AM - 06:30 PM""],""sun"":[""09:30 AM - 06:30 PM""]}";"2022-10-03 19:36:41";"2022-10-03 19:43:10";"0";NULL;NULL;NULL;NULL;"minnesota-tile-stone-plymouth-plymouth";NULL
"150";"Minnesota Tile & Stone - Woodbury";;"9703 Hudson Rd";"Woodbury";"MN";"55125";"223";"44.94634749999999";"-92.9100277";"(651) 730-0447";;;"https://www.hydroblok.com/find-a-dealer/minnesota-tile-stone-woodbury/";;"0";"1";"0";"{""mon"":[""09:30 AM - 06:30 PM""],""tue"":[""09:30 AM - 06:30 PM""],""wed"":[""09:30 AM - 06:30 PM""],""thu"":[""09:30 AM - 06:30 PM""],""fri"":[""09:30 AM - 06:30 PM""],""sat"":[""09:30 AM - 06:30 PM""],""sun"":[""09:30 AM - 06:30 PM""]}";"2022-10-03 19:38:14";"2022-10-03 19:43:00";"0";NULL;NULL;NULL;NULL;"minnesota-tile-stone-woodbury-woodbury";NULL
"151";"Minnesota Tile & Stone - Minnetonka";;"6001 Culligan Way";"Minnetonka";"MN";"55345";"223";"44.8943634";"-93.44817809999999";"(952) 345-9425";;;"https://www.hydroblok.com/find-a-dealer/minnesota-tile-stone-minnetonka/";;"0";"1";"0";"{""mon"":[""09:30 AM - 06:30 PM""],""tue"":[""09:30 AM - 06:30 PM""],""wed"":[""09:30 AM - 06:30 PM""],""thu"":[""09:30 AM - 06:30 PM""],""fri"":[""09:30 AM - 06:30 PM""],""sat"":[""09:30 AM - 06:30 PM""],""sun"":[""09:30 AM - 06:30 PM""]}";"2022-10-03 19:39:36";"2022-10-03 19:42:47";"0";NULL;NULL;NULL;NULL;"minnesota-tile-stone-minnetonka-minnetonka";NULL
"152";"Tool Republic";;"2310 St. Laurent Blvd, Unit 305,";"Ottawa";"ON";"K1G 5H9";"38";"45.3852831";"-75.619677";"(613) 523-5555";;;"https://www.hydroblok.com/find-a-dealer/tool-republic/";;"0";"1";"1";"{""mon"":[""09:30 AM - 06:30 PM""],""tue"":[""09:30 AM - 06:30 PM""],""wed"":[""09:30 AM - 06:30 PM""],""thu"":[""09:30 AM - 06:30 PM""],""fri"":[""09:30 AM - 06:30 PM""],""sat"":[""09:30 AM - 06:30 PM""],""sun"":[""09:30 AM - 06:30 PM""]}";"2022-10-03 19:46:32";"2023-10-27 02:20:22";"0";NULL;NULL;NULL;NULL;"tool-republic-ottawa";NULL
"153";"Village Tile";;"6306 Main St";"Stouffville";"ON";"L4A 1G8";"38";"43.9717743";"-79.2457977";"(905) 591-8453";;;"https://www.hydroblok.com/find-a-dealer/village-tile/";;"0";"1";"0";"{""mon"":[""09:30 AM - 06:30 PM""],""tue"":[""09:30 AM - 06:30 PM""],""wed"":[""09:30 AM - 06:30 PM""],""thu"":[""09:30 AM - 06:30 PM""],""fri"":[""09:30 AM - 06:30 PM""],""sat"":[""09:30 AM - 06:30 PM""],""sun"":[""09:30 AM - 06:30 PM""]}";"2022-10-03 19:48:29";"2022-10-03 19:49:30";"0";NULL;NULL;NULL;NULL;"village-tile-stouffville";NULL
"154";"Sage Kitchen & Bath";;" 12 Bram Court, Unit 9";"Brampton";"ON";"L6W 3R6";"38";"43.6842257";"-79.71492889999999";"(647)280-6917";;"info@SageKitchenandBath.ca";"https://www.hydroblok.com/find-a-dealer/sage-kitchen-bath/";;"0";"1";"0";"{""mon"":[""09:30 AM - 06:30 PM""],""tue"":[""09:30 AM - 06:30 PM""],""wed"":[""09:30 AM - 06:30 PM""],""thu"":[""09:30 AM - 06:30 PM""],""fri"":[""09:30 AM - 06:30 PM""],""sat"":[""09:30 AM - 06:30 PM""],""sun"":[""09:30 AM - 06:30 PM""]}";"2022-10-07 20:44:08";"2023-07-14 10:55:14";"0";NULL;NULL;NULL;NULL;"sage-kitchen-bath-brampton";NULL
"155";"Daltile West Atlanta";;"3021 Olympic Industrial Dr SE # 100";"Atlanta";"GA";"30339";"223";"33.8326916";"-84.4658265";"(404) 355-3180";;;"https://www.hydroblok.com/find-a-dealer/daltile-west-atlanta/";;"0";"1";"0";"{""mon"":""0"",""tue"":""0"",""wed"":""0"",""thu"":""0"",""fri"":""0"",""sat"":""0"",""sun"":""0""}";"2022-10-09 02:54:08";"2023-07-14 10:40:37";"0";NULL;NULL;NULL;NULL;"daltile-west-atlanta-atlanta";NULL
"156";"Daltile Charlotte";;"405 Forsyth Hall Drive";"Charlotte ";"NC";"28273";"223";"35.1197959";"-80.9140486";"(704) 588-0153";;;"https://www.hydroblok.com/find-a-dealer/daltile-charlotte/";;"0";"1";"0";"{""mon"":""0"",""tue"":""0"",""wed"":""0"",""thu"":""0"",""fri"":""0"",""sat"":""0"",""sun"":""0""}";"2022-10-09 02:55:30";"2023-07-14 10:36:37";"0";NULL;NULL;NULL;NULL;"daltile-charlotte-charlotte";NULL
"157";"Daltile Fayetteville";;"1211 Ireland Dr. Ste # 14";"Fayetteville";"NC";"28304";"223";"35.0418624";"-78.9463251";"(910) 323-3004";;;"https://www.hydroblok.com/find-a-dealer/daltile-fayetteville/";;"0";"1";"0";"{""mon"":""0"",""tue"":""0"",""wed"":""0"",""thu"":""0"",""fri"":""0"",""sat"":""0"",""sun"":""0""}";"2022-10-09 03:00:02";"2023-07-14 10:35:29";"0";NULL;NULL;NULL;NULL;"daltile-fayetteville-fayetteville";NULL
"158";"Daltile North Little Rock";;"9460 Maumelle Blvd. ";"North Little Rock";"AR";"72113";"223";"34.8176872";"-92.3660649";"(501) 812-4800";;;"https://www.hydroblok.com/find-a-dealer/daltile-north-little-rock/";;"0";"1";"0";"{""mon"":""0"",""tue"":""0"",""wed"":""0"",""thu"":""0"",""fri"":""0"",""sat"":""0"",""sun"":""0""}";"2022-10-09 03:03:59";"2023-07-14 10:29:53";"0";NULL;NULL;NULL;NULL;"daltile-north-little-rock-north-little-rock";NULL
"159";"Daltile Baton Rouge";;"12037 Airline Hwy";"Baton Rouge ";"LA";"70816";"223";"30.3918226";"-91.0475155";"(225) 751-3194";;;"https://www.hydroblok.com/find-a-dealer/daltile-baton-rouge/";;"0";"1";"0";"{""mon"":""0"",""tue"":""0"",""wed"":""0"",""thu"":""0"",""fri"":""0"",""sat"":""0"",""sun"":""0""}";"2022-10-09 03:05:58";"2023-07-14 10:28:28";"0";NULL;NULL;NULL;NULL;"daltile-baton-rouge-baton-rouge";NULL
"161";"Daltile Ridgeland";;"108 East State St.";"Ridgeland";"MS";"39157";"223";"32.4083337";"-90.13977249999999";"(601) 853-2714";;;"https://www.hydroblok.com/find-a-dealer/daltile-ridgeland/";;"0";"1";"0";"{""mon"":""0"",""tue"":""0"",""wed"":""0"",""thu"":""0"",""fri"":""0"",""sat"":""0"",""sun"":""0""}";"2022-10-09 03:11:02";"2023-07-14 10:26:08";"0";NULL;NULL;NULL;NULL;"daltile-ridgeland-ridgeland";NULL
"162";"Daltile Springfield";;"2710 S. Austin St.";"Springfield";"MO";"65807";"223";"37.1661693";"-93.3241365";"(417) 883-4600";;;"https://www.hydroblok.com/find-a-dealer/daltile-springfield/";;"0";"1";"0";"{""mon"":""0"",""tue"":""0"",""wed"":""0"",""thu"":""0"",""fri"":""0"",""sat"":""0"",""sun"":""0""}";"2022-10-09 03:13:22";"2023-07-14 10:25:05";"0";NULL;NULL;NULL;NULL;"daltile-springfield-springfield";NULL
"163";"Daltile Farmington Hills";;"24640 Drake Rd.";"Farmington Hills";"MI";"48335";"223";"42.471953";"-83.395523";"(248) 471-7150";;;"https://www.hydroblok.com/find-a-dealer/daltile-farmington-hills/";;"0";"1";"0";"{""mon"":""0"",""tue"":""0"",""wed"":""0"",""thu"":""0"",""fri"":""0"",""sat"":""0"",""sun"":""0""}";"2022-10-09 03:14:29";"2023-07-14 10:26:33";"0";NULL;NULL;NULL;NULL;"daltile-farmington-hills-farmington-hills";NULL
"164";"Daltile Mechanicsburg";;"4750 Westport Drive Ste # 100";"Mechanicsburg";"PA";"17055";"223";"40.2056662";"-76.954314";"(717) 795-0154";;;"https://www.hydroblok.com/find-a-dealer/daltile-mechanicsburg/";;"0";"1";"0";"{""mon"":""0"",""tue"":""0"",""wed"":""0"",""thu"":""0"",""fri"":""0"",""sat"":""0"",""sun"":""0""}";"2022-10-09 03:19:10";"2023-07-14 07:17:23";"0";NULL;NULL;NULL;NULL;"daltile-mechanicsburg-mechanicsburg";NULL
"165";"Daltile Allentown";;"904 Marcon Blvd. ";"Allentown";"PA";"18109";"223";"40.6391816";"-75.4467628";"(610) 266-6688";;;"https://www.hydroblok.com/find-a-dealer/daltile-allentown/";;"0";"1";"0";"{""mon"":""0"",""tue"":""0"",""wed"":""0"",""thu"":""0"",""fri"":""0"",""sat"":""0"",""sun"":""0""}";"2022-10-09 03:20:29";"2023-07-14 06:37:49";"0";NULL;NULL;NULL;NULL;"daltile-allentown-allentown";NULL
"166";"Daltile Dayton";;"181 Herrod Blvd. Ste # 12";"Dayton";"NJ";"08810";"223";"40.3559303";"-74.48822779999999";"(609) 409-7687";;;"https://www.hydroblok.com/find-a-dealer/daltile-daytona/";;"0";"1";"0";"{""mon"":""0"",""tue"":""0"",""wed"":""0"",""thu"":""0"",""fri"":""0"",""sat"":""0"",""sun"":""0""}";"2022-10-09 03:23:17";"2023-07-14 06:35:31";"0";NULL;NULL;NULL;NULL;"daltile-dayton-dayton";NULL
"167";"Daltile Port Orange";;"703 Samms Ave Ste C ";"Port Orange";"FL";"32129";"223";"29.1396331";"-80.99810219999999";"(386) 767-9561";;;"https://www.hydroblok.com/find-a-dealer/daltile-port-orange/";;"0";"1";"0";"{""mon"":""0"",""tue"":""0"",""wed"":""0"",""thu"":""0"",""fri"":""0"",""sat"":""0"",""sun"":""0""}";"2022-10-09 03:24:25";"2023-07-14 06:39:02";"0";NULL;NULL;NULL;NULL;"daltile-port-orange-port-orange";NULL
"168";"Daltile Jacksonville";;"9446 Philips Hwy Ste 10";"Jacksonville";"FL";"32256";"223";"30.1946964";"-81.56918220000001";"(904) 262-0444";;;"https://www.hydroblok.com/find-a-dealer/daltile-jacksonville/";;"0";"1";"0";"{""mon"":""0"",""tue"":""0"",""wed"":""0"",""thu"":""0"",""fri"":""0"",""sat"":""0"",""sun"":""0""}";"2022-10-09 03:27:10";"2023-07-14 06:32:32";"0";NULL;NULL;NULL;NULL;"daltile-jacksonville-jacksonville";NULL
"169";"Daltile Miramar Beach";;"195 Business Centre Dr. ";"Miramar Beach";"FL";"32550";"223";"30.3822527";"-86.3785948";"(850) 837-5508";;;"https://www.hydroblok.com/find-a-dealer/daltile-miramar-beach/";;"0";"1";"0";"{""mon"":""0"",""tue"":""0"",""wed"":""0"",""thu"":""0"",""fri"":""0"",""sat"":""0"",""sun"":""0""}";"2022-10-09 03:30:54";"2023-07-14 06:39:51";"0";NULL;NULL;NULL;NULL;"daltile-miramar-beach-miramar-beach";NULL
"170";"Daltile Naples";;"2900 Horseshoe Dr., South Suite 700";"Naples";"FL";"34104";"223";"26.1613883";"-81.7709263";"(239) 643-1823";;;"https://www.hydroblok.com/find-a-dealer/daltile-naples/";;"0";"1";"0";"{""mon"":""0"",""tue"":""0"",""wed"":""0"",""thu"":""0"",""fri"":""0"",""sat"":""0"",""sun"":""0""}";"2022-10-09 03:34:34";"2023-07-14 06:43:12";"0";NULL;NULL;NULL;NULL;"daltile-naples-naples";NULL
"171";"Daltile Fort Wayne";;"6401 Cross Creek Blvd";"Fort Wayne";"IN";"46818";"223";"41.1382555";"-85.1682701";"(260)489-8799";;;"https://www.hydroblok.com/find-a-dealer/daltile-fort-wayne/";;"0";"1";"0";"{""mon"":""0"",""tue"":""0"",""wed"":""0"",""thu"":""0"",""fri"":""0"",""sat"":""0"",""sun"":""0""}";"2022-10-20 17:30:17";"2023-07-14 06:54:20";"0";NULL;NULL;NULL;NULL;"daltile-fort-wayne-fort-wayne";NULL
"172";"BuildMyPlace";;"2900 Fern Valley Rd";"Louisville";"KY";"40213";"223";"38.1557367";"-85.7106962";"(740) 697-5223";;;"https://www.hydroblok.com/find-a-dealer/build-my-place/";;"0";"1";"0";"{""mon"":""0"",""tue"":""0"",""wed"":""0"",""thu"":""0"",""fri"":""0"",""sat"":""0"",""sun"":""0""}";"2022-10-20 20:08:10";"2023-07-14 07:12:12";"0";NULL;NULL;NULL;NULL;"buildmyplace-louisville";NULL
"173";"Daltile Mesquite";;"4400 US HWY 80 E, STE 140";"Mesquite";"TX";"75149";"223";"32.7958512";"-96.6659784";"(972) 613-4711";;;;;"0";"1";"0";"{""mon"":""0"",""tue"":""0"",""wed"":""0"",""thu"":""0"",""fri"":""0"",""sat"":""0"",""sun"":""0""}";"2022-10-26 03:16:01";"2022-10-26 03:18:10";"0";NULL;NULL;NULL;NULL;"daltile-mesquite-mesquite";NULL
"174";"Daltile Carrollton";;"1705 Wallace Drive, Suite 100";"Carrollton";"TX";"75006";"223";"32.9396291";"-96.92679369999999";"(972) 245-3185";;;;;"0";"1";"0";"{""mon"":""0"",""tue"":""0"",""wed"":""0"",""thu"":""0"",""fri"":""0"",""sat"":""0"",""sun"":""0""}";"2022-10-26 03:18:44";"2022-10-26 03:19:40";"0";NULL;NULL;NULL;NULL;"daltile-carrollton-carrollton";NULL
"175";"Daltile Fort Worth";;"3328 Fossil Creek BLVD";"Fort Worth";"TX";"76137";"223";"32.8473792";"-97.3115497";"(972) 489-7073";;;;;"0";"1";"0";"{""mon"":""0"",""tue"":""0"",""wed"":""0"",""thu"":""0"",""fri"":""0"",""sat"":""0"",""sun"":""0""}";"2022-10-26 03:19:48";"2022-10-26 03:20:43";"0";NULL;NULL;NULL;NULL;"daltile-fort-worth-fort-worth";NULL
"176";"Daltile San Antonio";;"1119 Arion Pkwy";"San Antonio";"TX";"78216";"223";"29.5494002";"-98.4761011";"(210) 403-0298";;;;;"0";"1";"0";"{""mon"":""0"",""tue"":""0"",""wed"":""0"",""thu"":""0"",""fri"":""0"",""sat"":""0"",""sun"":""0""}";"2022-10-26 03:20:51";"2022-10-26 03:21:54";"0";NULL;NULL;NULL;NULL;"daltile-san-antonio-san-antonio";NULL
"177";"Daltile Arlington";;"2500 E Mayfield Rd ,Ste 300";"Arlington";"TX";"76014";"223";"32.6908361";"-97.0652206";"(817) 784-3853";;;;;"0";"1";"0";"{""mon"":""0"",""tue"":""0"",""wed"":""0"",""thu"":""0"",""fri"":""0"",""sat"":""0"",""sun"":""0""}";"2022-10-27 14:22:56";"2022-10-27 14:24:05";"0";NULL;NULL;NULL;NULL;"daltile-arlington-arlington";NULL
"178";"Daltile Plano";;"1300 E Plano Pkwy A";"Plano";"TX";"75074";"223";"33.0063405";"-96.6946404";"(972) 578-1600";;;;;"0";"1";"0";"{""mon"":""0"",""tue"":""0"",""wed"":""0"",""thu"":""0"",""fri"":""0"",""sat"":""0"",""sun"":""0""}";"2022-10-27 14:24:28";"2022-10-27 14:25:28";"0";NULL;NULL;NULL;NULL;"daltile-plano-plano";NULL
"179";"Standard Paint and Flooring";;"130 S 72nd Ave";"Yakima";"WA";"98908";"223";"46.5960976";"-120.6063226";"(509) 972-7620";;;"https://www.hydroblok.com/find-a-dealer/standard-paint-and-flooring/";;"0";"1";"0";"{""mon"":""0"",""tue"":""0"",""wed"":""0"",""thu"":""0"",""fri"":""0"",""sat"":""0"",""sun"":""0""}";"2022-11-09 01:59:56";"2023-07-14 05:50:02";"0";NULL;NULL;NULL;NULL;"standard-paint-and-flooring-yakima";NULL
"180";"Daltile Charleston";;"2261 Technical Pkwy Ste B";"Charleston";"SC";"29406";"223";"32.910524";"-80.032352";"(509) 972-7620";;;"https://www.hydroblok.com/find-a-dealer/daltile-charleston/";;"0";"1";"0";"{""mon"":""0"",""tue"":""0"",""wed"":""0"",""thu"":""0"",""fri"":""0"",""sat"":""0"",""sun"":""0""}";"2022-11-26 04:39:51";"2023-07-14 05:39:45";"0";NULL;NULL;NULL;NULL;"daltile-charleston-charleston";NULL
"181";"SVC Interiors & Design Inc - Bellingham";;"1701 Ellis St, STE 107";"Bellingham";"WA";"98225";"223";"48.7521332";"-122.4723879";"(360) 676-6036";;;"https://www.hydroblok.com/find-a-dealer/svc-interiors-design-inc-bellingham/";;"0";"1";"0";"{""mon"":""0"",""tue"":""0"",""wed"":""0"",""thu"":""0"",""fri"":""0"",""sat"":""0"",""sun"":""0""}";"2022-11-29 23:21:30";"2023-07-14 05:04:43";"0";NULL;NULL;NULL;NULL;"svc-interiors-design-inc-bellingham-bellingham";NULL
"182";"Custom Touch Interiors";;"13029 NE 20th St";"Bellevue";"WA";"98005";"223";"47.6276913";"-122.165924";"(425) 883-0555";;;"https://www.hydroblok.com/find-a-dealer/custom-touch-interiors/";;"0";"1";"0";"{""mon"":""0"",""tue"":""0"",""wed"":""0"",""thu"":""0"",""fri"":""0"",""sat"":""0"",""sun"":""0""}";"2022-11-29 23:24:00";"2023-07-14 04:55:43";"0";NULL;NULL;NULL;NULL;"custom-touch-interiors-bellevue";NULL
"183";"Standard Paint & Flooring, L.L.C. - Yakima";;"409 W Yakima Ave";"Yakima";"WA";"98902";"223";"46.6009925";"-120.5152148";"(509) 453-3171";;;"https://www.hydroblok.com/find-a-dealer/standard-paint-flooring-l-l-c-yakima/";;"0";"1";"0";"{""mon"":""0"",""tue"":""0"",""wed"":""0"",""thu"":""0"",""fri"":""0"",""sat"":""0"",""sun"":""0""}";"2022-11-29 23:26:41";"2023-07-14 04:45:24";"0";NULL;NULL;NULL;NULL;"standard-paint-flooring-l-l-c-yakima-yakima";NULL
"184";"Ceramic Tile Supply NW";;"1620 W 7th Ave";"Eugene";"OR";"97402";"223";"44.0518463";"-123.1173497";"541-343-0449";;;"http:// https://www.hydroblok.com/find-a-dealer/ceramic-tile-supply-nw/";;"0";"1";"0";"{""mon"":""0"",""tue"":""0"",""wed"":""0"",""thu"":""0"",""fri"":""0"",""sat"":""0"",""sun"":""0""}";"2022-11-29 23:30:08";"2023-07-13 18:45:40";"0";NULL;NULL;NULL;NULL;"ceramic-tile-supply-nw-eugene";NULL
"185";"Color Tile of Medford";;"3069 Crater Lake Ave";"Medford";" OR";"97504";"223";"42.3612462";"-122.856127";"(541) 776-3220";;;"https://www.hydroblok.com/find-a-dealer/color-tile-of-medford/";;"0";"1";"0";"{""mon"":""0"",""tue"":""0"",""wed"":""0"",""thu"":""0"",""fri"":""0"",""sat"":""0"",""sun"":""0""}";"2022-11-29 23:33:30";"2023-07-13 18:35:24";"0";NULL;NULL;NULL;NULL;"color-tile-of-medford-medford";NULL
"186";"Carpet One Floor & Home";;"1606 N Portland St";"La Grande";" OR";"97850";"223";"45.32756750000001";"-118.0790321";"(541) 963-6033";;;"https://www.hydroblok.com/find-a-dealer/carpet-one-floor-home/";;"0";"1";"0";"{""mon"":""0"",""tue"":""0"",""wed"":""0"",""thu"":""0"",""fri"":""0"",""sat"":""0"",""sun"":""0""}";"2022-11-29 23:35:44";"2023-07-13 18:22:20";"0";NULL;NULL;NULL;NULL;"carpet-one-floor-home-la-grande";NULL
"187";"Southeastern Tile Connection Wilmington";;"2101 Capital Drive";"Wilmington";"NC";"28405";"223";"34.2849463";"-77.8742883";"(910) 799-5565";;"info@setileconnection.com";"https://www.hydroblok.com/find-a-dealer/southeastern-tile-connection-wilmington/";;"0";"1";"0";"{""mon"":""0"",""tue"":""0"",""wed"":""0"",""thu"":""0"",""fri"":""0"",""sat"":""0"",""sun"":""0""}";"2022-12-13 14:17:03";"2023-07-14 05:52:35";"0";NULL;NULL;NULL;NULL;"southeastern-tile-connection-wilmington-wilmington";NULL
"188";"Southeastern Tile Connection Durham";;"3738 Durham-Chapel Hill Blvd,. Unit D";"Durham";"NC";"27707";"223";"35.9716673";"-78.9533196";"(919) 237-9845";;"info@setileconnection.com";"http:// https://www.hydroblok.com/find-a-dealer/southeastern-tile-connection-wilmington/ ";;"0";"1";"0";"{""mon"":""0"",""tue"":""0"",""wed"":""0"",""thu"":""0"",""fri"":""0"",""sat"":""0"",""sun"":""0""}";"2022-12-13 14:18:33";"2023-07-13 18:17:28";"0";NULL;NULL;NULL;NULL;"southeastern-tile-connection-durham-durham";NULL
"189";"Sunsai Tile and Surfaces";;"1510 Drew Rd #14,";"Mississauga";"ON";"L5S 1W7";"38";"43.6804685";"-79.68067789999999";"+1 647-407-1191";;;"https://www.hydroblok.com/find-a-dealer/sunsai-tile-and-surfaces/";;"0";"1";"0";"{""mon"":""0"",""tue"":""0"",""wed"":""0"",""thu"":""0"",""fri"":""0"",""sat"":""0"",""sun"":""0""}";"2022-12-15 17:07:40";"2023-07-13 17:51:23";"0";NULL;NULL;NULL;NULL;"sunsai-tile-and-surfaces-mississauga";NULL
"190";"ATS Supply Ltd.";;"13451 Doole Road";"Ladysmith";"BC";"V9G 1G6";"38";"49.0433459";"-123.7991889";"250-661-6794";;"atssupplyltd@gmail.com";"https://atssupply.ca/";;"0";"1";"0";"{""mon"":""0"",""tue"":""0"",""wed"":""0"",""thu"":""0"",""fri"":""0"",""sat"":""0"",""sun"":""0""}";"2022-12-15 17:22:58";"2023-12-05 21:26:51";"0";NULL;NULL;NULL;NULL;"ats-supply-ltd-ladysmith";NULL
"191";"Daltile Myrtle Beach";;"1330 17th Ave S";"Myrtle Beach";"SC";"29577";"223";"33.692744";"-78.9168779";"(843) 839-0033";;;"https://www.hydroblok.com/find-a-dealer/daltile-myrtle-beach/";;"0";"1";"0";"{""mon"":""0"",""tue"":""0"",""wed"":""0"",""thu"":""0"",""fri"":""0"",""sat"":""0"",""sun"":""0""}";"2022-12-22 05:12:03";"2023-07-13 16:32:33";"0";NULL;NULL;NULL;NULL;"daltile-myrtle-beach-myrtle-beach";NULL
"193";"Daltile San Rafael";;"25 Pelican Way";"San Rafael";"CA";"94901";"223";"37.9495207";"-122.4933352";"(415)454-8610";;;"https://www.hydroblok.com/find-a-dealer/daltile-san-rafael/";;"0";"1";"0";"{""mon"":""0"",""tue"":""0"",""wed"":""0"",""thu"":""0"",""fri"":""0"",""sat"":""0"",""sun"":""0""}";"2023-02-03 13:53:22";"2023-07-13 13:01:54";"0";NULL;NULL;NULL;NULL;"daltile-san-rafael-san-rafael";NULL
"195";"EMCO Guelph";;"65 Dawson Rd #1";"Guelph";"ON";"N1H 1B1";"38";"43.547801";"-80.2763825";"(519)822-9160";;;"https://www.hydroblok.com/find-a-dealer/emco-guelph/";;"0";"1";"0";"{""mon"":""0"",""tue"":""0"",""wed"":""0"",""thu"":""0"",""fri"":""0"",""sat"":""0"",""sun"":""0""}";"2023-02-27 18:46:49";"2023-07-13 12:46:12";"0";NULL;NULL;NULL;NULL;"emco-guelph-guelph";NULL
"197";" Premier Surface & Supply LLC";;"12971 Eaton St";"Detroit";"MI";"48227";"223";"42.3969814";"-83.1738388";"(313) 659-6115";;;"https://www.hydroblok.com/find-a-dealer/premier-surface-supply-llc/";;"0";"1";"0";"{""mon"":""0"",""tue"":""0"",""wed"":""0"",""thu"":""0"",""fri"":""0"",""sat"":""0"",""sun"":""0""}";"2023-02-27 19:13:30";"2023-07-12 12:05:34";"0";NULL;NULL;NULL;NULL;"premier-surface-supply-llc-detroit";NULL
"198";"ProSource of Seattle";;"21312 30th Dr SE Suite B-107";"Bothell";"WA";"98021";"223";"47.804429";"-122.1961172";"425-487-4343 ext. 100";;;"https://www.hydroblok.com/find-a-dealer/prosource-of-seattle/";;"0";"1";"0";"{""mon"":""0"",""tue"":""0"",""wed"":""0"",""thu"":""0"",""fri"":""0"",""sat"":""0"",""sun"":""0""}";"2023-03-18 21:32:54";"2023-07-12 11:56:07";"0";NULL;NULL;NULL;NULL;"prosource-of-seattle-bothell";NULL
"199";"East Coast Granite & Tile";;"3042 E Chestnut Expy,";"Springfield";"MO";"65802";"223";"37.20941200000001";"-93.2324783";"417-423-7722";;;"https://www.hydroblok.com/find-a-dealer/east-coast-granite-tile/";;"0";"1";"0";"{""mon"":""0"",""tue"":""0"",""wed"":""0"",""thu"":""0"",""fri"":""0"",""sat"":""0"",""sun"":""0""}";"2023-03-18 21:35:13";"2023-07-12 11:37:54";"0";NULL;NULL;NULL;NULL;"east-coast-granite-tile-springfield";NULL
"201";" Curran Design Center";;"1609 N State Highway CC";"Nixa";"MO";"65714";"223";"37.0734265";"-93.2942168";"417-724-1018";;;;;"0";"1";"0";"{""mon"":""0"",""tue"":""0"",""wed"":""0"",""thu"":""0"",""fri"":""0"",""sat"":""0"",""sun"":""0""}";"2023-03-18 21:40:12";"2023-03-18 21:42:49";"0";NULL;NULL;NULL;NULL;"curran-design-center-nixa";NULL
"203";"Lakeside Renovations & Design";;"139 Chesterfield Industrial Blvd";"Chesterfield";"MO";"63005";"223";"38.6654647";"-90.62245209999999";"636-978-5000";;;;;"0";"1";"0";"{""mon"":""0"",""tue"":""0"",""wed"":""0"",""thu"":""0"",""fri"":""0"",""sat"":""0"",""sun"":""0""}";"2023-03-18 21:47:11";"2023-03-18 21:49:32";"0";NULL;NULL;NULL;NULL;"lakeside-renovations-design-chesterfield";NULL
"204";"Carpet One Floor & Home";;"105 Business Loop 70 E,";"Columbia";"MO";"65203";"223";"38.9651018";"-92.3359739";"(573) 303-5680";;;;;"0";"1";"0";"{""mon"":""0"",""tue"":""0"",""wed"":""0"",""thu"":""0"",""fri"":""0"",""sat"":""0"",""sun"":""0""}";"2023-03-18 21:49:49";"2023-03-18 21:50:33";"0";NULL;NULL;NULL;NULL;"carpet-one-floor-home-columbia";NULL
"205";"Homestar Design Remodel";;"13014 Manchester Rd, Suite C";"Saint Louis";"MO";"63131";"223";"38.6021412";"-90.459908";"(314) 328-8200";;;"https://www.hydroblok.com/find-a-dealer/homestar-design-remodel/";;"0";"1";"0";"{""mon"":""0"",""tue"":""0"",""wed"":""0"",""thu"":""0"",""fri"":""0"",""sat"":""0"",""sun"":""0""}";"2023-04-19 13:28:56";"2023-07-12 11:23:01";"0";NULL;NULL;NULL;NULL;"homestar-design-remodel-saint-louis";NULL
"207";" The Tile House, Whitby, ON";;"1400 Victoria Street East, Unit 3";"Whitby";"ON";"L1N 0M2";"38";"43.8666218";"-78.91167380000002";"(905) 668-2434";;;"https://www.hydroblok.com/find-a-dealer/the-tile-house-whitby/";;"0";"1";"0";"{""mon"":""0"",""tue"":""0"",""wed"":""0"",""thu"":""0"",""fri"":""0"",""sat"":""0"",""sun"":""0""}";"2023-04-19 13:42:44";"2023-04-19 13:49:25";"0";NULL;NULL;NULL;NULL;"the-tile-house-whitby-on-whitby";NULL
"208";"Mees Distributors, Inc.";;"1541 West Fork Rd";"Cincinnati";"OH";"45223";"223";"39.1636128";"-84.55356789999999";"513-541-2311";;"jmassengale@meesdistributors.com";"https://www.hydroblok.com/find-a-dealer/mees-distributors-inc/";;"0";"1";"0";"{""mon"":""0"",""tue"":""0"",""wed"":""0"",""thu"":""0"",""fri"":""0"",""sat"":""0"",""sun"":""0""}";"2023-05-01 21:20:32";"2023-05-02 18:42:54";"0";NULL;NULL;NULL;NULL;"mees-distributors-inc-cincinnati";NULL
"209";"Alpha Tile & Stone - Tampa";;"2443 East Meadow BLVD";"Tampa";"FL";"33619";"223";"27.9643327";"-82.3626759";"813-620-9000";;"tony@alphatile.com";"https://www.hydroblok.com/find-a-dealer/alpha-tile-stone-tampa/";;"0";"1";"0";"{""mon"":""0"",""tue"":""0"",""wed"":""0"",""thu"":""0"",""fri"":""0"",""sat"":""0"",""sun"":""0""}";"2023-05-22 17:54:19";"2023-07-12 11:00:42";"0";NULL;NULL;NULL;NULL;"alpha-tile-stone-tampa-tampa";NULL
"210";"Alpha Tile & Stone - Sarasota";;"1808 Whitfield Avenue";"Sarasota";"FL";"34243";"223";"27.4177314";"-82.5420022";"941-727-7433";;"mikem@alphatile.com";"https://www.hydroblok.com/find-a-dealer/alpha-tile-stone-sarasota/";;"0";"1";"0";"{""mon"":""0"",""tue"":""0"",""wed"":""0"",""thu"":""0"",""fri"":""0"",""sat"":""0"",""sun"":""0""}";"2023-05-22 17:58:08";"2023-07-12 10:37:31";"0";NULL;NULL;NULL;NULL;"alpha-tile-stone-sarasota-sarasota";NULL
"211";"Alpha Tile & Stone - Ft. Myers";;"10898 Metro Pkwy, Suite A";"Ft. Myers";"FL";"33966";"223";"26.5836309";"-81.8540255";"239-275-8288";;"lynn@alphatile.com";"https://www.hydroblok.com/find-a-dealer/alpha-tile-stone-ft-myers/";;"0";"1";"0";"{""mon"":""0"",""tue"":""0"",""wed"":""0"",""thu"":""0"",""fri"":""0"",""sat"":""0"",""sun"":""0""}";"2023-05-22 17:59:38";"2023-07-12 10:28:24";"0";NULL;NULL;NULL;NULL;"alpha-tile-stone-ft-myers-ft-myers";NULL
"212";"M2 Tile & Stone + Slabs";;"26 Dufflaw Rd";"Toronto";"ON";"M6A 2W1";"38";"37.09024";"-95.712891";"416-850-1045";;"christine@m2tilestone.com";"https://m2tilestone.com/";;"0";"1";"1";"{""mon"":""0"",""tue"":""0"",""wed"":""0"",""thu"":""0"",""fri"":""0"",""sat"":""0"",""sun"":""0""}";"2023-05-26 18:37:07";"2023-06-24 15:30:51";"0";NULL;NULL;NULL;NULL;"m2-tile-stone-slabs-toronto";NULL
"213";"Maris Home Improvements";;"208 Chesterfield Industrial Blvd.";"Chesterfield";"MO";"63005";"223";"38.662838";"-90.62111019999999";"(636) 948-6004";;;"https://www.hydroblok.com/find-a-dealer/maris-home-improvements/";;"0";"1";"0";"{""mon"":""0"",""tue"":""0"",""wed"":""0"",""thu"":""0"",""fri"":""0"",""sat"":""0"",""sun"":""0""}";"2023-06-12 01:09:52";"2023-07-12 10:27:23";"0";NULL;NULL;NULL;NULL;"maris-home-improvements-chesterfield";NULL
"214";"Global Stone LLC ";;"421 N Rawhide";"Olathe";"KS";"66061";"223";"38.8866119";"-94.7914234";"(913) 764-9400";;;;;"0";"1";"0";"{""mon"":""0"",""tue"":""0"",""wed"":""0"",""thu"":""0"",""fri"":""0"",""sat"":""0"",""sun"":""0""}";"2023-06-15 21:11:33";"2023-06-15 21:13:03";"0";NULL;NULL;NULL;NULL;"global-stone-llc-olathe";NULL
"215";"Global Stone LLC ";;" 7613 NW. Prairie View Rd";"Kansas City";"MO";"64151";"223";"39.2331881";"-94.6577253";"(816)656-5111";;;;;"0";"1";"0";"{""mon"":""0"",""tue"":""0"",""wed"":""0"",""thu"":""0"",""fri"":""0"",""sat"":""0"",""sun"":""0""}";"2023-06-15 21:13:14";"2023-06-15 21:15:04";"0";NULL;NULL;NULL;NULL;"global-stone-llc-kansas-city";NULL
"216";"Millenium Slate LLC";;"2027 County Rt 23";"Middle Granville";"NY";"12849";"223";"43.4332191";"-73.2831515";"855-677-6257";;"info@mslate.rocks";"https://www.hydroblok.com/find-a-dealer/millenium-slate-llc/";;"0";"1";"0";"{""mon"":""0"",""tue"":""0"",""wed"":""0"",""thu"":""0"",""fri"":""0"",""sat"":""0"",""sun"":""0""}";"2023-06-16 02:12:36";"2023-07-12 07:07:34";"0";NULL;NULL;NULL;NULL;"millenium-slate-llc-middle-granville";NULL
"217";"Cabinet Design Studio";;"146th & Industrial Road";"Omaha";"NE";"68144";"223";"41.2235466";"-96.1370398";"(531) 301-9550";;"info@cabinetsomaha.com";"https://www.hydroblok.com/find-a-dealer/cabinet-design-studio/";;"0";"1";"0";"{""mon"":""0"",""tue"":""0"",""wed"":""0"",""thu"":""0"",""fri"":""0"",""sat"":""0"",""sun"":""0""}";"2023-06-23 18:47:16";"2023-07-12 06:50:02";"0";NULL;NULL;NULL;NULL;"cabinet-design-studio-omaha";NULL
"218";"M2 Tile & Stone + Slabs";;"26 Dufflaw Rd";"Toronto";"ON";"M6A 2W1";"38";"43.7145966";"-79.4624829";"416-850-1045";;"info@m2tilestone.com";"https://www.hydroblok.com/find-a-dealer/m2tilestone-distribution/";;"0";"1";"0";"{""mon"":""0"",""tue"":""0"",""wed"":""0"",""thu"":""0"",""fri"":""0"",""sat"":""0"",""sun"":""0""}";"2023-06-24 15:31:08";"2023-07-12 06:16:17";"0";NULL;NULL;NULL;NULL;"m2-tile-stone-slabs-toronto";NULL
"219";"Daltile Cranberry - Pittsburgh North";"Daltile Sales Service Center in Cranberry Township, PA is the best destination in the country for specialty tile, from one-of-a-kind mosaics, to wood-look and natural stone At a Daltile Sales Service Center, youll always find the best deal on tile along with the information you need to bring your clients dream to life.";"220 Executive Dr. Ste 100-200";"Cranberry Twp";"PA";"16066";"223";"40.68701799999999";"-80.1083365";"(724) 776-2311";;"mark.mckinnis@daltile.com";"https://locations.daltile.com/pa/cranberry-township/284/";;"0";"1";"0";"{""mon"":""0"",""tue"":""0"",""wed"":""0"",""thu"":""0"",""fri"":""0"",""sat"":""0"",""sun"":""0""}";"2023-07-27 18:10:25";"2023-07-27 18:13:20";"0";NULL;NULL;NULL;NULL;"daltile-cranberry-pittsburgh-north-cranberry-twp";NULL
"220";" BT Bath Inc.";;"35 Gotha St";"Trenton";"Ontario";"K8V 6C9";"38";"44.1060036";"-77.5868812";"416-986-5051";;;"https://btbath.ca";;"0";"1";"0";"{""mon"":""0"",""tue"":""0"",""wed"":""0"",""thu"":""0"",""fri"":""0"",""sat"":""0"",""sun"":""0""}";"2023-10-05 20:10:34";"2023-10-05 20:15:01";"0";NULL;NULL;NULL;NULL;"bt-bath-inc-trenton";NULL
"222";"Daltile New Orleans";;"700 Elmwood pkwy. suite B";"New Orleans";"LA";"70123";"223";"34.2068182";"-118.2000277";"(504) 818-0118";;;"https://locations.daltile.com/la/new-orleans/110/";;"0";"1";"0";"{""mon"":""0"",""tue"":""0"",""wed"":""0"",""thu"":""0"",""fri"":""0"",""sat"":""0"",""sun"":""0""}";"2023-10-11 20:44:52";"2023-10-11 20:47:00";"0";NULL;NULL;NULL;NULL;"daltile-new-orleans-new-orleans";NULL
"223";"Daltile New Orleans";;"700 Elmwood pkwy. suite B";"New Orleans";"LA";"70123";"223";"34.2068182";"-118.2000277";"(504) 818-0118";;;"https://locations.daltile.com/la/new-orleans/110/";;"0";"1";"0";"{""mon"":""0"",""tue"":""0"",""wed"":""0"",""thu"":""0"",""fri"":""0"",""sat"":""0"",""sun"":""0""}";"2023-10-11 20:47:55";NULL;"0";NULL;NULL;NULL;NULL;"daltile-new-orleans-new-orleans";NULL
"224";"MB Services";;"2101 Baldwin Ave Suite 1";"Crofton";"Maryland";"21114";"223";"38.9870852";"-76.6935617";"(443) 590-5048";;;"http://www.mb-services.us";;"0";"1";"0";"{""mon"":""0"",""tue"":""0"",""wed"":""0"",""thu"":""0"",""fri"":""0"",""sat"":""0"",""sun"":""0""}";"2023-10-17 12:51:12";"2024-01-08 03:44:26";"0";NULL;NULL;NULL;NULL;"mb-services-crofton";NULL
"225";"Iron Mountain Stone & Tile";;;"Concord";"NC";"28025";"223";"35.4087517";"-80.579511";"980-253-3451 ";;"ironmountainstone@gmail.com";"https://www.ironmountainstone.com/";;"0";"1";"0";"{""mon"":""0"",""tue"":""0"",""wed"":""0"",""thu"":""0"",""fri"":""0"",""sat"":""0"",""sun"":""0""}";"2023-10-17 20:58:45";"2023-10-17 21:06:22";"0";NULL;NULL;NULL;NULL;"iron-mountain-stone-tile-concord";NULL
"226";"ProSource Of Acadiana";;"321 E. Verot School Road";"Lafayette";"LA";"70508";"223";"30.180169";"-91.9987441";"337-205-3606";;;"https://www.prosourcewholesale.com/showrooms/la-prosource-of-acadiana";;"0";"1";"0";"{""mon"":""0"",""tue"":""0"",""wed"":""0"",""thu"":""0"",""fri"":""0"",""sat"":""0"",""sun"":""0""}";"2023-10-19 20:11:11";"2023-10-22 21:43:47";"0";NULL;NULL;NULL;NULL;"prosource-of-acadiana-lafayette";NULL
"227";"ProSource Of Mobile";;"1558 West Interstate 65 Service Rd S";"Mobile";"AL";"36693";"223";"30.6573155";"-88.1257069";"(251) 202-3670";;;"https://www.prosourcewholesale.com/showrooms/al-prosource-of-mobile";;"0";"1";"0";"{""mon"":""0"",""tue"":""0"",""wed"":""0"",""thu"":""0"",""fri"":""0"",""sat"":""0"",""sun"":""0""}";"2023-10-22 21:40:08";"2023-10-22 21:43:14";"0";NULL;NULL;NULL;NULL;"prosource-of-mobile-mobile";NULL
"228";"ProSource of Baton Rouge";;"10848 Airline Hwy";"Baton Rouge";"LA";"70809";"223";"30.4058135";"-91.0624318";"(225) 230-4626";;;"https://www.prosourcewholesale.com/showrooms/la-prosource-of-baton-rouge";;"0";"1";"0";"{""mon"":""0"",""tue"":""0"",""wed"":""0"",""thu"":""0"",""fri"":""0"",""sat"":""0"",""sun"":""0""}";"2023-10-22 21:44:38";"2023-10-22 21:46:27";"0";NULL;NULL;NULL;NULL;"prosource-of-baton-rouge-baton-rouge";NULL
"229";"ProSource of New Orleans";;"1525 Edwards Ave";"Harahan";"LA";"70123";"223";"29.9633396";"-90.1955309";" (504) 291-3904";;;"https://www.prosourcewholesale.com/showrooms/la-prosource-of-new-orleans";;"0";"1";"0";"{""mon"":""0"",""tue"":""0"",""wed"":""0"",""thu"":""0"",""fri"":""0"",""sat"":""0"",""sun"":""0""}";"2023-10-22 21:46:58";"2023-10-22 21:48:02";"0";NULL;NULL;NULL;NULL;"prosource-of-new-orleans-harahan";NULL
"230";"ProSource of Gonzales";;"2325 S Commerce Ave";"Gonzales";"LA";"70737";"223";"30.2123013";"-90.9409302";"(225) 230-4625";;;"https://www.prosourcewholesale.com/showrooms/la-prosource-of-gonzales";;"0";"1";"0";"{""mon"":""0"",""tue"":""0"",""wed"":""0"",""thu"":""0"",""fri"":""0"",""sat"":""0"",""sun"":""0""}";"2023-10-22 21:48:42";"2023-10-22 21:49:55";"0";NULL;NULL;NULL;NULL;"prosource-of-gonzales-gonzales";NULL
"231";"ProSource of Jackson";;"6370 Cole Rd";"Ridgeland";"MS";"39157";"223";"32.4028023";"-90.1754721";"(601) 255-2877";;;"https://www.prosourcewholesale.com/showrooms/ms-prosource-of-jackson";;"0";"1";"0";"{""mon"":""0"",""tue"":""0"",""wed"":""0"",""thu"":""0"",""fri"":""0"",""sat"":""0"",""sun"":""0""}";"2023-10-22 21:51:05";"2023-10-22 21:52:28";"0";NULL;NULL;NULL;NULL;"prosource-of-jackson-ridgeland";NULL
"232";"ProSource of Mandeville";;"13464 Seymour Myers Dr.";"Covington";"LA";"70433";"223";"30.4529671";"-90.17825909999999";"(985) 206-8619";;;"https://www.prosourcewholesale.com/showrooms/la-prosource-of-mandeville";;"0";"1";"0";"{""mon"":""0"",""tue"":""0"",""wed"":""0"",""thu"":""0"",""fri"":""0"",""sat"":""0"",""sun"":""0""}";"2023-10-22 21:52:49";"2023-10-22 21:54:28";"0";NULL;NULL;NULL;NULL;"prosource-of-mandeville-covington";NULL
"233";"Floor Surplus";;"1683 O'Neal Ln";"Baton Rouge";"LA";"70816";"223";"30.4454136";"-91.005515";"(225) 372-3645";;;"https://www.floorsurplus.net/";;"0";"1";"0";"{""mon"":""0"",""tue"":""0"",""wed"":""0"",""thu"":""0"",""fri"":""0"",""sat"":""0"",""sun"":""0""}";"2023-10-22 21:55:40";"2023-10-22 21:56:48";"0";NULL;NULL;NULL;NULL;"floor-surplus-baton-rouge";NULL
"234";"Smith & Purvis Carpet One";;"1905 N Morrison Blvd";"Hammond";"LA";"70401";"223";"30.5183647";"-90.4833467";"(985) 878-5085";;;"https://www.smithandpurviscarpetonehammond.com/";;"0";"1";"0";"{""mon"":""0"",""tue"":""0"",""wed"":""0"",""thu"":""0"",""fri"":""0"",""sat"":""0"",""sun"":""0""}";"2023-10-22 22:05:27";"2023-10-22 22:06:52";"0";NULL;NULL;NULL;NULL;"smith-purvis-carpet-one-hammond";NULL
"235";"Menzie Stone";;"16575 Commercial Ave";"Baton Rouge";"LA";"70816";"223";"30.4452088";"-91.00009089999999";"(225) 275-7819";;;"https://menziestone.com/";;"0";"1";"0";"{""mon"":""0"",""tue"":""0"",""wed"":""0"",""thu"":""0"",""fri"":""0"",""sat"":""0"",""sun"":""0""}";"2023-10-22 22:07:04";"2023-10-22 22:08:17";"0";NULL;NULL;NULL;NULL;"menzie-stone-baton-rouge";NULL
"236";"Menzie Flooring & Stone Nola";;"1525 Edwards Ave";"Harahan";"LA";"70816";"223";"29.9633396";"-90.1955309";"504-733-3070";;;;;"0";"1";"0";"{""mon"":""0"",""tue"":""0"",""wed"":""0"",""thu"":""0"",""fri"":""0"",""sat"":""0"",""sun"":""0""}";"2023-10-22 22:09:32";"2023-10-22 22:10:40";"0";NULL;NULL;NULL;NULL;"menzie-flooring-stone-nola-harahan";NULL
"237";"Menzie Production Builders ";;"16575 Commercial Ave Bldg. 2 2nd Floor";"Baton Rouge";"LA";"70816 ";"223";"30.4549016";"-91.1660626";"225-275-7819";;;;;"0";"1";"0";"{""mon"":""0"",""tue"":""0"",""wed"":""0"",""thu"":""0"",""fri"":""0"",""sat"":""0"",""sun"":""0""}";"2023-10-22 22:10:56";"2023-10-22 22:13:30";"0";NULL;NULL;NULL;NULL;"menzie-production-builders-baton-rouge";NULL
"238";"PS Distribution";;"16575 Commercial Ave Bldg. 3";"Baton Rouge";"LA";"70816 ";"223";"30.4549016";"-91.1660626";"225-774-8686";;;;;"0";"1";"0";"{""mon"":""0"",""tue"":""0"",""wed"":""0"",""thu"":""0"",""fri"":""0"",""sat"":""0"",""sun"":""0""}";"2023-10-22 22:14:33";"2023-10-22 22:15:09";"0";NULL;NULL;NULL;NULL;"ps-distribution-baton-rouge";NULL
"239";"Tile For Less - Federal Way ";;"1610 S 344th ST ";"Federal Way ";"WA";"98003";"223";"47.2938237";"-122.3129578";"(253) 878-5224";;"federalway@tileforlessnw.com";"https://tileforlessnw.com/federal-way/";;"0";"1";"0";"{""mon"":""0"",""tue"":""0"",""wed"":""0"",""thu"":""0"",""fri"":""0"",""sat"":""0"",""sun"":""0""}";"2023-11-17 16:02:26";"2023-11-17 16:04:04";"0";NULL;NULL;NULL;NULL;"tile-for-less-federal-way-federal-way";NULL
"240";"Contract Furnishings Mart - North Seattle";;"953 N 128th ST";"Seattle";"WA";"98133";"223";"47.7220235";"-122.3457891";"(206) 805-2709";;"dom.berryhill@cfmfloors.com";"https://cfmfloors.com/north-seattle-wa/";;"0";"1";"0";"{""mon"":""0"",""tue"":""0"",""wed"":""0"",""thu"":""0"",""fri"":""0"",""sat"":""0"",""sun"":""0""}";"2023-11-17 16:04:54";"2023-11-17 16:06:30";"0";NULL;NULL;NULL;NULL;"contract-furnishings-mart-north-seattle-seattle";NULL
"241";"Contract Furnishings Mart - Everett";;"802 134th St SW #160";"Everett ";"WA";"98204";"223";"47.8746684";"-122.2444849";"(425) 329-1330";;"ashley.whitworth@cfmfloors.com";"https://cfmfloors.com/everett-wa/";;"0";"1";"0";"{""mon"":""0"",""tue"":""0"",""wed"":""0"",""thu"":""0"",""fri"":""0"",""sat"":""0"",""sun"":""0""}";"2023-11-17 16:06:48";"2023-11-17 16:08:04";"0";NULL;NULL;NULL;NULL;"contract-furnishings-mart-everett-everett";NULL
"242";"Contract Furnishings Mart - Fife";;"3600 Industry Dr E ";"Fife";"WA";"98424";"223";"47.2371949";"-122.3790488";"(253) 922-4648";;"sam.gallagher@cfmfloors.com";"https://cfmfloors.com/fife-wa/";;"0";"1";"0";"{""mon"":""0"",""tue"":""0"",""wed"":""0"",""thu"":""0"",""fri"":""0"",""sat"":""0"",""sun"":""0""}";"2023-11-17 16:08:34";"2023-11-17 16:10:11";"0";NULL;NULL;NULL;NULL;"contract-furnishings-mart-fife-fife";NULL
"243";"Contract Furnishings Mart - Kent";;"22230 84th Ave S";"Kent";"WA";"98032";"223";"47.4019896";"-122.2274345";"(253) 234-2040";;"david.halingstad@cfmfloors.com";"https://cfmfloors.com/kent-wa/";;"0";"1";"0";"{""mon"":""0"",""tue"":""0"",""wed"":""0"",""thu"":""0"",""fri"":""0"",""sat"":""0"",""sun"":""0""}";"2023-11-17 16:10:24";"2023-11-17 16:11:26";"0";NULL;NULL;NULL;NULL;"contract-furnishings-mart-kent-kent";NULL
"244";"Contract Furnishings Mart - Lacey";;"8719 Commerce Pl Dr NE ";"Lacey";"WA";"98516";"223";"47.0698643";"-122.755813";"(206) 480-0950";;"michelle.baduria@cfmfloors.com";"https://cfmfloors.com/lacey-wa/";;"0";"1";"0";"{""mon"":""0"",""tue"":""0"",""wed"":""0"",""thu"":""0"",""fri"":""0"",""sat"":""0"",""sun"":""0""}";"2023-11-17 16:11:40";"2023-11-17 16:12:36";"0";NULL;NULL;NULL;NULL;"contract-furnishings-mart-lacey-lacey";NULL
"245";"Contract Furnishings Mart - Redmond";;"14920 NE 95th ST Suite A";"Redmond";"WA";"98052";"223";"47.6876306";"-122.1413643";"(425) 861-7589";;"jeri.martin@cfmfloors.com";"https://cfmfloors.com/redmond-wa/";;"0";"1";"0";"{""mon"":""0"",""tue"":""0"",""wed"":""0"",""thu"":""0"",""fri"":""0"",""sat"":""0"",""sun"":""0""}";"2023-11-17 16:12:58";"2023-11-17 16:13:53";"0";NULL;NULL;NULL;NULL;"contract-furnishings-mart-redmond-redmond";NULL
"246";"Contract Furnishings Mart - Seattle";;"500 S Brandon ST";"Seattle ";"WA";"98108";"223";"47.5544249";"-122.3280481";"(206) 763-4500";;"jed.kittell@cfmfloors.com";"https://cfmfloors.com/seattle-wa/";;"0";"1";"0";"{""mon"":""0"",""tue"":""0"",""wed"":""0"",""thu"":""0"",""fri"":""0"",""sat"":""0"",""sun"":""0""}";"2023-11-17 16:14:03";"2023-11-17 16:15:07";"0";NULL;NULL;NULL;NULL;"contract-furnishings-mart-seattle-seattle";NULL
"247";"Contract Furnishings Mart - Tacoma";;"6305 6th Ave ";"Tacoma";"WA";"98406";"223";"47.2573696";"-122.5212989";"(253) 284-0020";;"tom.quinlan@cfmfloors.com";"https://cfmfloors.com/tacoma-wa/";;"0";"1";"0";"{""mon"":""0"",""tue"":""0"",""wed"":""0"",""thu"":""0"",""fri"":""0"",""sat"":""0"",""sun"":""0""}";"2023-11-17 16:15:51";"2023-11-17 16:16:51";"0";NULL;NULL;NULL;NULL;"contract-furnishings-mart-tacoma-tacoma";NULL
"248";"Mat Valley Tile & Stone (Anchorage)";;"661 E 48th Ave";"Anchorage";"AK";"99503";"223";"61.17751570000001";"-149.8715782";"(907) 644-8453";;"sales@matvalleytile.com";"https://www.matvalleytile.com/";;"0";"1";"0";"{""mon"":""0"",""tue"":""0"",""wed"":""0"",""thu"":""0"",""fri"":""0"",""sat"":""0"",""sun"":""0""}";"2023-11-17 16:17:30";"2023-11-17 16:18:44";"0";NULL;NULL;NULL;NULL;"mat-valley-tile-stone-anchorage-anchorage";NULL
"249";"Mat Valley Tile & Stone (Wasilla)";;"3770 E Steven Dr";"Wasilla";"AK";"99654";"223";"61.58395900000001";"-149.354752";"(907) 357-8484";;"sales@matvalleytile.com";"https://www.matvalleytile.com/";;"0";"1";"0";"{""mon"":""0"",""tue"":""0"",""wed"":""0"",""thu"":""0"",""fri"":""0"",""sat"":""0"",""sun"":""0""}";"2023-11-17 16:18:56";"2023-11-17 16:20:04";"0";NULL;NULL;NULL;NULL;"mat-valley-tile-stone-wasilla-wasilla";NULL
"250";"Contemporary Bathrooms";;"1235 40 Ave NE";"Calgary";"AB";"T2E 6M9";"38";"51.0882705";"-114.0328456";"(403) 291-2200";;"info@contemporarybath.ca";;;"0";"1";"0";"{""mon"":""0"",""tue"":""0"",""wed"":""0"",""thu"":""0"",""fri"":""0"",""sat"":""0"",""sun"":""0""}";"2023-11-27 19:11:17";"2023-12-05 21:34:40";"0";NULL;NULL;NULL;NULL;"contemporary-bathrooms-calgary";NULL
"251";"Home Hardware Penticton";;"150 Fairview Place";"Penticton";"British Columbia";"V2A 6A5";"38";"49.4805889";"-119.5966661";"(250) 493-1233";;"customerservice@pentictonhhbc.com";"https://pentictonhhbc.com/";;"0";"1";"0";"{""mon"":""0"",""tue"":""0"",""wed"":""0"",""thu"":""0"",""fri"":""0"",""sat"":""0"",""sun"":""0""}";"2023-12-05 21:29:26";"2023-12-05 21:30:56";"0";NULL;NULL;NULL;NULL;"home-hardware-penticton-penticton";NULL
"252";"Golden Valley Tile and Stone";;"202 NE 1P Road";"Clinton";"MO";"64735";"223";"38.3686324";"-93.7782689";"660.351.6230";;;;;"0";"1";"0";"{""mon"":""0"",""tue"":""0"",""wed"":""0"",""thu"":""0"",""fri"":""0"",""sat"":""0"",""sun"":""0""}";"2023-12-12 19:54:30";"2023-12-12 19:56:12";"0";NULL;NULL;NULL;NULL;"golden-valley-tile-and-stone-clinton";NULL
"253";"Metex Supply Co, Regina";"Metex hand-picks every product we sell, focussing on providing a high standard of quality and longevity, at a competitive cost. ";"Unit 12  309 Adolph Drive";"Regina";"SK";"S4N5S5";"38";"50.46878719999999";"-104.5771278";"(306) 530-8012";;"metexregina@gmail.com";"https://metexsupply.com/";;"0";"1";"0";"{""mon"":[""08:00 AM - 05:00 PM""],""tue"":[""08:00 AM - 05:00 PM""],""wed"":[""08:00 AM - 05:00 PM""],""thu"":[""08:00 AM - 05:00 PM""],""fri"":[""08:00 AM - 05:00 PM""],""sat"":""0"",""sun"":""0""}";"2023-12-22 02:31:06";"2023-12-22 02:35:35";"0";NULL;NULL;NULL;NULL;"metex-supply-co-regina-regina";NULL
"254";"EMCO Corporation";"Metex hand-picks every product we sell, focussing on providing a high standard of quality and longevity, at a competitive cost. ";"1000 Last Mile Drive, Unit 1";"Ottawa";"ON";"K1G 6Y1";"38";"45.3818489";"-75.5886797";"613-824-6091";;"afortin@emcoltd.com";"https://emco.ca/stores/emco-ottawa/";;"0";"1";"0";"{""mon"":""0"",""tue"":""0"",""wed"":""0"",""thu"":""0"",""fri"":""0"",""sat"":""0"",""sun"":""0""}";"2024-01-17 15:50:26";"2024-01-17 15:53:42";"0";NULL;NULL;NULL;NULL;"emco-corporation-ottawa";NULL
"256";"Standard Paint and Flooring";"At Standard Paint & Flooring, we pride ourselves on quality products and service our customers can count on. Along with our original brand of customer-pleasing Benjamin Moore paint, we have more products in-store than most people imagine. We carry a large selection of flooring, including carpet, tile, stone, luxury vinyl, and hardwood, window treatments, and several lines of cabinetry in our newly-designed showrooms. Our paint and stain library is extensive, and we will gladly color match to you";"610 S Main Street";"Ellensburg";"WA";"98926";"223";"46.986329";"-120.547708";"(509) 962-2551";;"j.jenkins@standardpaintandflooring.com";"https://www.standardpaintandflooring.com/";;"0";"1";"0";"{""mon"":""0"",""tue"":""0"",""wed"":""0"",""thu"":""0"",""fri"":""0"",""sat"":""0"",""sun"":""0""}";"2024-02-02 19:17:59";"2024-02-02 19:20:15";"0";NULL;NULL;NULL;NULL;"standard-paint-and-flooring-ellensburg";NULL
"258";"Ziggys Home Improvement (Spokane)";;"620 E Holland Ave";"Spokane";"WA";"99218";"223";"47.7429181";"-117.3992009";"(509) 467-4958";;;"https://ziggys.com/";;"0";"1";"0";"{""mon"":""0"",""tue"":""0"",""wed"":""0"",""thu"":""0"",""fri"":""0"",""sat"":""0"",""sun"":""0""}";"2024-02-02 19:25:54";"2024-02-02 19:27:42";"0";NULL;NULL;NULL;NULL;"ziggy-s-home-improvement-spokane-spokane";NULL
"259";"Ziggys Home Improvement (Lewiston)";;"1109 Warner Ave";"Lewiston";"ID";"83501";"223";"46.3849181";"-116.9736402";"(208) 743-6900";;;"https://ziggys.com/";;"0";"1";"0";"{""mon"":""0"",""tue"":""0"",""wed"":""0"",""thu"":""0"",""fri"":""0"",""sat"":""0"",""sun"":""0""}";"2024-02-02 19:29:09";"2024-02-02 19:30:23";"0";NULL;NULL;NULL;NULL;"ziggy-s-home-improvement-lewiston-lewiston";NULL
"260";"Ziggys Home Improvement (Post Falls)";;"2121 N Highway 41";"Post Falls";"ID";"83854";"223";"47.7281397";"-116.8976719";"(208) 777-1955";;;"https://ziggys.com/";;"0";"1";"0";"{""mon"":""0"",""tue"":""0"",""wed"":""0"",""thu"":""0"",""fri"":""0"",""sat"":""0"",""sun"":""0""}";"2024-02-02 19:30:37";"2024-02-02 19:31:34";"0";NULL;NULL;NULL;NULL;"ziggy-s-home-improvement-post-falls-post-falls";NULL
"262";"Housing Interiors of Mid Missouri llc";;" 5307 E St Charles Rd";"Columbia";"OH";"65201";"223";"40.4172871";"-82.90712300000001";"(573) 474-9695";;"HOUSINGINTERIORSLLC@GMAIL.COM";"https://www.housinginteriorsllc.com/";;"0";"1";"0";"{""mon"":""0"",""tue"":""0"",""wed"":""0"",""thu"":""0"",""fri"":""0"",""sat"":""0"",""sun"":""0""}";"2024-02-07 21:43:28";"2024-02-07 21:45:13";"0";NULL;NULL;NULL;NULL;"housing-interiors-of-mid-missouri-llc-columbia";NULL
"263";"McLean Floorcoverings";;"4391 W. US Highway 421";"Wilkesboro";"NC";"28697";"223";"36.149169";"-81.2401375";"(336) 568-0804";;;"https://www.mcleanfloors.com/";;"0";"1";"0";"{""mon"":""0"",""tue"":""0"",""wed"":""0"",""thu"":""0"",""fri"":""0"",""sat"":""0"",""sun"":""0""}";"2024-02-07 21:45:24";"2024-02-15 18:18:09";"0";NULL;NULL;NULL;NULL;"mclean-floorcoverings-wilkesboro";NULL
"264";"Accent Floor Coverings";;"4614 N HWY 763";"Columbia";"OH";"65202";"223";"40.4172871";"-82.90712300000001";"(573) 874-2832";;;"https://accentfc.com/";;"0";"1";"0";"{""mon"":""0"",""tue"":""0"",""wed"":""0"",""thu"":""0"",""fri"":""0"",""sat"":""0"",""sun"":""0""}";"2024-02-07 21:47:33";"2024-02-07 21:50:31";"0";NULL;NULL;NULL;NULL;"accent-floor-coverings-columbia";NULL
"265";"Daltile Lenexa";;"15380 W. 101st Terrace";"Lenexa";"KS";"66219";"223";"38.946888";"-94.7641652";"913-599-2987";;"KansasCity.SSC106@Daltile.com";"https://locations.daltile.com/ks/lenexa/106/";;"0";"1";"0";"{""mon"":""0"",""tue"":""0"",""wed"":""0"",""thu"":""0"",""fri"":""0"",""sat"":""0"",""sun"":""0""}";"2024-02-27 14:35:12";"2024-02-27 14:38:17";"0";NULL;NULL;NULL;NULL;"daltile-lenexa-lenexa";NULL
"266";"Tile This";;"1436 Cliff Road E";"Burnsville";"MN";"55337";"223";"44.7907219";"-93.2550847";"(952) 882-0436 ";;"Sales@TileThis.com";"https://tilethis.com/";;"0";"1";"0";"{""mon"":""0"",""tue"":""0"",""wed"":""0"",""thu"":""0"",""fri"":""0"",""sat"":""0"",""sun"":""0""}";"2024-03-06 13:44:45";"2024-03-06 13:46:08";"0";NULL;NULL;NULL;NULL;"tile-this-burnsville";NULL
"267";"Paul Davis of Polk County";;"3306 Waterfield Rd";"Lakeland";"FL";"33803";"223";"28.0037127";"-81.8968033";"+1 863-644-7373";;;"https://polk-county.pauldavis.com/";;"0";"1";"0";"{""mon"":""0"",""tue"":""0"",""wed"":""0"",""thu"":""0"",""fri"":""0"",""sat"":""0"",""sun"":""0""}";"2024-03-08 06:27:07";"2024-03-08 06:28:50";"0";NULL;NULL;NULL;NULL;"paul-davis-of-polk-county-lakeland";NULL
"268";"Flooring Outlet Center";;"5310 South Florida Avenue";"Lakeland";"FL";"33813";"223";"27.9688416";"-81.9632408";"+1 863-644-9935";;;"http://flooringoutletcenterinc.com/";;"0";"1";"0";"{""mon"":""0"",""tue"":""0"",""wed"":""0"",""thu"":""0"",""fri"":""0"",""sat"":""0"",""sun"":""0""}";"2024-03-08 06:29:00";"2024-03-08 06:30:10";"0";NULL;NULL;NULL;NULL;"flooring-outlet-center-lakeland";NULL
"269";"Floors 4 Pro's";;"2108 Whitfield Park Loop";"Sarasota";"FL";"34243";"223";"27.4208614";"-82.53849459999999";"+1 941-666-8640";;;"https://www.floors4pros.com/";;"0";"1";"0";"{""mon"":""0"",""tue"":""0"",""wed"":""0"",""thu"":""0"",""fri"":""0"",""sat"":""0"",""sun"":""0""}";"2024-03-08 06:30:33";"2024-03-08 06:31:44";"0";NULL;NULL;NULL;NULL;"floors-4-pro-s-sarasota";NULL
"270";"Prosource Wichita";;"535 S Emerson St,";"Wichita";"KS";"67209";"223";"37.6753362";"-97.4306148";"(316) 223-7860";;;"https://www.prosourcewholesale.com/showrooms/ks-prosource-of-wichita";;"0";"1";"0";"{""mon"":""0"",""tue"":""0"",""wed"":""0"",""thu"":""0"",""fri"":""0"",""sat"":""0"",""sun"":""0""}";"2024-03-11 18:42:34";"2024-03-11 18:46:15";"0";NULL;NULL;NULL;NULL;"prosource-wichita-wichita";NULL
"271";"Goodlife Home Renovations";"Stocking Dealer";"2541 W College Rd";"Springfield";"MO";"65802";"223";"37.2096057";"-93.3273597";"+14175015994";;;"https://www.goodlifehomerenovations.com/";;"0";"1";"0";"{""mon"":""0"",""tue"":""0"",""wed"":""0"",""thu"":""0"",""fri"":""0"",""sat"":""0"",""sun"":""0""}";"2024-03-14 21:33:26";"2024-03-18 19:39:59";"0";NULL;NULL;NULL;NULL;"goodlife-home-renovations-springfield";NULL
"272";"Maline Tile  - Massachusettes";;"20 Reservoir Park Drive";"Rockland";"MA";"02370";"223";"42.1603627";"-70.9046475";"781.792.1780";;"SalesMA@maline.com";"https://malinetile.com/";;"0";"1";"0";"{""mon"":""0"",""tue"":""0"",""wed"":""0"",""thu"":""0"",""fri"":""0"",""sat"":""0"",""sun"":""0""}";"2024-03-19 20:18:56";"2024-03-19 20:21:23";"0";NULL;NULL;NULL;NULL;"maline-tile-massachusettes-rockland";NULL
"273";"Maline Tile  - New Jersey";;"2 Doig Road";"Wayne";"NJ";"07470";"223";"40.9342856";"-74.271301";"973.835.0244";;"SalesNJ@maline.com";"https://malinetile.com/";;"0";"1";"0";"{""mon"":""0"",""tue"":""0"",""wed"":""0"",""thu"":""0"",""fri"":""0"",""sat"":""0"",""sun"":""0""}";"2024-03-19 20:21:35";"2024-03-19 20:22:42";"0";NULL;NULL;NULL;NULL;"maline-tile-new-jersey-wayne";NULL
"274";"Emco Kitchener";;"500 Trillium Drive, Units 3-5";"Kitchener";"Ontario";"N2R 1A7";"38";"43.4017618";"-80.46958819999999";"519-894-7000";;"SalesNJ@maline.com";"https://emco.ca/stores/emco-kitchener/";;"0";"1";"0";"{""mon"":""0"",""tue"":""0"",""wed"":""0"",""thu"":""0"",""fri"":""0"",""sat"":""0"",""sun"":""0""}";"2024-03-28 21:02:12";"2024-05-08 01:42:19";"0";NULL;NULL;NULL;NULL;"emco-kitchener-kitchener";NULL
"276";"The Tile House, Pickering, ON";;"1095 Kingston Rd #3";"Pickering";"ON";"L1V 1B5";"38";"43.82687749999999";"-79.09927359999999";"(905) 839-1434";;;"https://www.hydroblok.com/find-a-dealer/the-tile-house-pickering/";;"0";"1";"0";"{""mon"":""0"",""tue"":""0"",""wed"":""0"",""thu"":""0"",""fri"":""0"",""sat"":""0"",""sun"":""0""}";"2024-04-17 12:18:51";"2024-04-17 20:18:44";"0";NULL;NULL;NULL;NULL;"the-tile-house-pickering-on-pickering";NULL
"277";"EMCO Peterborough";;"774 Rye St, #11";"Peterborough";"ON";"K9J 6W9";"38";"44.2786042";"-78.34459609999999";"(705) 742-4251";;;"https://emco.ca/stores/emco-peterborough/";;"0";"1";"0";"{""mon"":""0"",""tue"":""0"",""wed"":""0"",""thu"":""0"",""fri"":""0"",""sat"":""0"",""sun"":""0""}";"2024-05-07 18:50:20";"2024-05-07 18:53:41";"0";NULL;NULL;NULL;NULL;"emco-peterborough-peterborough";NULL
"278";"The Ensuite Winnipeg";;"1199 St James St";"Winnipeg";"MB";"R3K 0K8";"38";"49.90086489999999";"-97.1994034";"(204)925-8466";;"customerservice@theensuite.ca";"http://www.theensuitewinnipeg.ca";;"0";"1";"0";"{""mon"":""0"",""tue"":""0"",""wed"":""0"",""thu"":""0"",""fri"":""0"",""sat"":""0"",""sun"":""0""}";"2024-05-08 01:24:58";"2024-05-08 01:26:38";"0";NULL;NULL;NULL;NULL;"the-ensuite-winnipeg-winnipeg";NULL
"279";" EMCO Western Supplies";;"1199 St James St";"Winnipeg";"MB";"R3K 0K8";"38";"49.90086489999999";"-97.1994034";"(204)925-8711";;"605cust@emcoltd.com";"http://www.theensuitewinnipeg.ca";;"0";"1";"0";"{""mon"":""0"",""tue"":""0"",""wed"":""0"",""thu"":""0"",""fri"":""0"",""sat"":""0"",""sun"":""0""}";"2024-05-08 01:48:44";"2024-05-08 01:52:34";"0";NULL;NULL;NULL;NULL;"emco-western-supplies-winnipeg";NULL
"280";"Remarkable Concept";"Stocking Dealer";"1550 NE Riddell Rd, STE 10";"Bremerton";"WA";"98310";"223";"47.6074527";"-122.6309858";"(204)925-8711";;"inforemarkableconcept@gmail.com";"https://www.remarkable-concept.com/";;"0";"1";"0";"{""mon"":""0"",""tue"":""0"",""wed"":""0"",""thu"":""0"",""fri"":""0"",""sat"":""0"",""sun"":""0""}";"2024-05-14 01:17:28";"2024-05-14 01:18:52";"0";NULL;NULL;NULL;NULL;"remarkable-concept-bremerton";NULL
"281";"Idaho Floors";"Stocking Dealer";"1905 19th Avenue";"Lewiston";"Idaho";"83501";"223";"46.4012792";"-117.0041447";"(208) 743-0327";;"info@idahofloors.net";"https://idahofloors.net/";;"0";"1";"0";"{""mon"":""0"",""tue"":""0"",""wed"":""0"",""thu"":""0"",""fri"":""0"",""sat"":""0"",""sun"":""0""}";"2024-05-14 01:19:04";"2024-05-14 01:20:35";"0";NULL;NULL;NULL;NULL;"idaho-floors-lewiston";NULL
"282";"Accent Flooring";"Contact - Ben Martin";"4614 N HGWY 763";"Columbia";"MO";"65202";"223";"38.9985119";"-92.32299259999999";"573-874-2832";;;"https://accentfc.com/";;"0";"1";"0";"{""mon"":""0"",""tue"":""0"",""wed"":""0"",""thu"":""0"",""fri"":""0"",""sat"":""0"",""sun"":""0""}";"2024-05-31 07:14:25";"2024-05-31 07:16:36";"0";NULL;NULL;NULL;NULL;"accent-flooring-columbia";NULL
